HIERARCHY
ROOT Hips
{
  OFFSET 0.000000 0.000000 0.000000
  CHANNELS 6 Xposition Yposition Zposition Zrotation Xrotation Yrotation
  JOINT Spine1
  {
    OFFSET 0.000000 0.000000 0.000000
    CHANNELS 3 Zrotation Xrotation Yrotation
    JOINT Spine2
    {
      OFFSET -0.000000 4.400000 -0.396350
      CHANNELS 3 Zrotation Xrotation Yrotation
      JOINT Chest
      {
        OFFSET 0.000000 0.000000 0.000000
        CHANNELS 3 Zrotation Xrotation Yrotation
        JOINT LeftShoulder
        {
          OFFSET 10.022000 24.778000 0.395630
          CHANNELS 3 Zrotation Xrotation Yrotation
          JOINT LeftArm
          {
            OFFSET 4.424000 -11.703100 -0.000000
            CHANNELS 3 Zrotation Xrotation Yrotation
            JOINT LeftForeArm
            {
              OFFSET 0.000000 -8.051800 1.578300
              CHANNELS 3 Zrotation Xrotation Yrotation
              JOINT LeftHand
              {
                OFFSET 0.188791 -1.000000 18.400000
                CHANNELS 3 Zrotation Xrotation Yrotation
                End Site
                {
                  OFFSET 0 0 1
                }
              }
            }
          }
        }
        JOINT RightShoulder
        {
          OFFSET -10.021000 24.778000 0.395630
          CHANNELS 3 Zrotation Xrotation Yrotation
          JOINT RightArm
          {
            OFFSET -4.424000 -11.703100 -0.000000
            CHANNELS 3 Zrotation Xrotation Yrotation
            JOINT RightForeArm
            {
              OFFSET 0.000000 -8.051800 1.578300
              CHANNELS 3 Zrotation Xrotation Yrotation
              JOINT RightHand
              {
                OFFSET -0.188791 -1.000000 18.400000
                CHANNELS 3 Zrotation Xrotation Yrotation
                End Site
                {
                  OFFSET 0 0 1
                }
              }
            }
          }
        }
      }
    }
  }
  JOINT LeftLeg
  {
    OFFSET 11.645200 -25.728500 2.500100
    CHANNELS 3 Zrotation Xrotation Yrotation
    JOINT LeftShin
    {
      OFFSET 0.214890 -17.734000 -7.827300
      CHANNELS 3 Zrotation Xrotation Yrotation
      JOINT LeftFoot
      {
        OFFSET -0.009445 -31.756800 -0.000000
        CHANNELS 3 Zrotation Xrotation Yrotation
        JOINT LeftToeBase
        {
          OFFSET 0.000000 -3.500000 14.000000
          CHANNELS 3 Zrotation Xrotation Yrotation
          End Site
          {
            OFFSET 0 0 1
          }
        }
      }
    }
  }
  JOINT RightLeg
  {
    OFFSET -11.645200 -25.728500 2.500100
    CHANNELS 3 Zrotation Xrotation Yrotation
    JOINT RightShin
    {
      OFFSET -0.214890 -17.734000 -7.827300
      CHANNELS 3 Zrotation Xrotation Yrotation
      JOINT RightFoot
      {
        OFFSET 0.009444 -31.756800 -0.000000
        CHANNELS 3 Zrotation Xrotation Yrotation
        JOINT RightToeBase
        {
          OFFSET 0.000000 -3.500000 14.000000
          CHANNELS 3 Zrotation Xrotation Yrotation
          End Site
          {
            OFFSET 0 0 1
          }
        }
      }
    }
  }
}
MOTION
Frames: 120
Frame Time: 0.033333333
0.000000 77.960152 0.000000 0.135850 -2.728521 0.000002 -0.000000 0.000000 -0.801741 0.437936 0.000000 -0.000000 -0.000000 8.786698 -0.000000 16.002568 -3.322972 -0.011439 -1.211473 -0.000000 -25.605391 -0.000002 68.000686 0.000002 4.891295 -2.312186 -1.858894 -16.003206 -0.121218 0.011420 2.928519 -0.000000 23.865748 0.000003 72.167682 -0.000004 -7.983105 1.406575 -6.767304 0.271313 -2.930985 15.400137 0.000000 9.787127 -0.000000 0.633891 -4.369831 0.048300 0.476245 0.148124 -15.341941 -0.653561 -3.499802 -16.145444 0.000000 10.427036 -0.000001 -0.500462 -6.162426 -0.053724 -0.735104 1.862788 16.122556
0.011912 77.959846 0.029049 0.114260 -2.777465 0.011435 -0.000000 0.000000 -0.999832 0.433468 0.000000 0.000000 -0.000000 8.789679 -0.000000 16.002484 -3.743458 -0.011444 -1.559933 -0.000000 -25.446763 -0.000002 68.598537 0.000001 5.228729 -2.810596 -0.988960 -16.003131 -0.505860 0.011420 3.243957 -0.000000 23.212135 -0.000001 72.464442 -0.000000 -7.851995 1.699387 -8.409704 0.255920 -2.753125 15.384773 -0.000000 9.564869 0.000000 0.603548 -4.261656 0.044852 0.507080 0.128217 -15.340636 -0.590254 -3.295595 -16.078576 -0.000000 10.154553 0.000001 -0.532857 -6.026547 -0.055946 -0.692368 1.840250 16.046082
0.026183 77.965973 0.074422 0.091624 -2.815930 0.011105 0.000000 0.000000 -1.166593 0.421828 0.000000 -0.000000 0.000000 8.737789 0.000000 16.002497 -3.679039 -0.011443 -1.568384 0.000000 -25.406565 0.000003 68.556241 -0.000003 5.415544 -3.060844 -0.474333 -16.003152 -0.404964 0.011420 3.181802 0.000000 22.811292 -0.000000 72.153971 0.000000 -7.522003 1.980429 -8.905123 0.273456 -2.690307 15.369942 -0.000000 9.598849 -0.000001 0.585984 -4.286061 0.043797 0.521724 0.094073 -15.326545 -0.549438 -3.135113 -16.090396 0.000000 9.973505 -0.000000 -0.537133 -5.935093 -0.055543 -0.673040 1.807285 16.058974
0.032404 77.973221 0.115515 0.074267 -2.893576 -0.008275 -0.000000 -0.000000 -1.258690 0.403607 -0.000000 -0.000000 -0.000000 8.753966 0.000000 16.002497 -3.673983 -0.011443 -1.545104 -0.000000 -25.472601 -0.000002 68.541375 0.000001 5.523158 -3.182780 -0.172927 -16.003147 -0.427420 0.011420 3.107787 -0.000000 22.828176 0.000001 71.994408 -0.000002 -7.484689 2.208970 -8.561183 0.285731 -2.580680 15.360626 -0.000000 9.638490 0.000000 0.615907 -4.331863 0.046523 0.486606 0.068468 -15.299219 -0.516325 -2.941795 -16.082898 0.000000 9.815386 -0.000001 -0.559566 -5.816487 -0.056709 -0.633966 1.731147 16.071163
0.043695 77.975830 0.152147 0.057295 -2.981015 -0.022487 0.000000 -0.000000 -1.218418 0.398507 0.000000 -0.000000 0.000000 8.805807 0.000000 16.002483 -3.752180 -0.011444 -1.508662 -0.000000 -25.577933 -0.000006 68.566863 0.000006 5.600912 -3.245482 -0.046191 -16.003125 -0.537676 0.011420 3.025751 -0.000000 23.235394 -0.000002 72.058105 0.000002 -7.805240 2.502753 -7.819068 0.300656 -2.463229 15.359747 -0.000000 9.676657 0.000001 0.600232 -4.349081 0.045519 0.495541 0.018216 -15.285144 -0.487408 -2.758256 -16.094368 0.000000 9.693303 -0.000000 -0.587654 -5.768454 -0.059066 -0.592790 1.709096 16.097912
0.054457 77.976097 0.190482 0.049355 -3.091179 -0.033241 -0.000000 -0.000000 -1.157295 0.407656 -0.000000 0.000000 -0.000000 8.891074 0.000000 16.002459 -3.867487 -0.011446 -1.487572 0.000000 -25.739549 0.000000 68.590814 -0.000001 5.679535 -3.267366 -0.006021 -16.003101 -0.649850 0.011421 2.981940 -0.000000 23.717146 -0.000002 72.196576 0.000002 -8.020037 2.717868 -7.118514 0.294621 -2.283492 15.368493 0.000000 9.634897 -0.000001 0.619038 -4.363781 0.047104 0.472153 0.003874 -15.284869 -0.481051 -2.571526 -16.130689 -0.000000 9.628081 -0.000000 -0.580308 -5.745433 -0.058094 -0.581558 1.677219 16.146268
0.071653 77.973099 0.231755 0.034445 -3.192592 -0.050673 0.000000 -0.000000 -1.108290 0.435801 0.000000 -0.000000 0.000000 8.929326 -0.000000 16.002443 -3.939757 -0.011447 -1.479869 0.000000 -25.779690 0.000004 68.598121 -0.000005 5.753264 -3.280956 0.013013 -16.003104 -0.628757 0.011421 2.970526 0.000000 23.918840 0.000001 72.219411 -0.000001 -8.034936 2.768285 -6.594503 0.286992 -2.081159 15.383181 -0.000000 9.545628 -0.000000 0.636037 -4.369236 0.048457 0.450657 -0.004710 -15.284573 -0.464381 -2.397058 -16.085691 -0.000000 9.582014 0.000000 -0.582432 -5.703639 -0.057885 -0.557548 1.611412 16.118815
0.087063 77.969315 0.276834 0.036931 -3.302747 -0.065182 -0.000000 0.000000 -1.091822 0.453496 -0.000000 -0.000000 -0.000000 8.944934 -0.000000 16.002441 -3.955494 -0.011447 -1.497332 -0.000000 -25.739628 0.000001 68.566301 -0.000001 5.791197 -3.291492 0.041810 -16.003130 -0.509512 0.011420 2.980317 0.000000 23.922522 -0.000003 72.127204 0.000003 -7.865903 2.657230 -6.203489 0.256385 -1.884074 15.382352 -0.000000 9.472025 0.000001 0.601690 -4.367285 0.045821 0.488060 -0.024120 -15.269885 -0.473718 -2.224336 -16.035346 0.000000 9.549532 0.000001 -0.563956 -5.757138 -0.056573 -0.548341 1.639819 16.085985
0.108597 78.048569 0.318940 0.288280 -3.537911 -0.029203 -0.000000 -0.000000 -1.055028 0.415594 -0.000000 0.000000 0.000000 9.161232 0.000000 16.002345 -4.433730 -0.011454 -1.863562 0.000000 -25.630317 -0.000000 69.206620 0.000000 5.999119 -3.626674 -0.716775 -16.003137 -0.473285 0.011420 3.091254 -0.000000 23.913300 0.000000 71.521919 0.000000 -7.018813 2.566314 -6.292226 -0.045186 -1.955634 14.796280 0.000000 9.766436 -0.000000 0.782642 -4.718518 0.064385 0.384007 0.327045 -14.704601 -0.504312 -2.220474 -15.924095 0.000000 9.681637 -0.000001 -0.651854 -5.955413 -0.067636 -0.724619 1.870530 15.951381
0.095511 78.088257 0.491702 0.251621 -3.052306 -0.262340 -0.000000 0.000000 -1.346446 0.423415 0.000000 -0.000000 -0.000000 9.326746 -0.000000 16.002269 -4.807786 -0.011460 -2.052147 -0.000000 -25.473255 0.000003 69.215441 -0.000004 5.953885 -3.960619 -0.887164 -16.003115 -0.586821 0.011420 3.430470 0.000000 23.489960 -0.000000 72.131954 -0.000000 -6.341348 2.453580 -6.466706 -0.078565 -1.891235 14.579550 -0.000000 10.004023 0.000000 0.900889 -4.901162 0.076976 0.163928 -0.271316 -14.255517 -0.515466 -2.579800 -15.567270 0.000000 10.009440 -0.000000 -0.682070 -6.158491 -0.073175 -0.591205 1.641273 15.819924
0.077705 78.081573 1.043007 0.178268 -2.601564 -0.608660 -0.000000 0.000000 -1.303625 0.416156 -0.000000 -0.000000 0.000000 9.469223 -0.000000 16.002400 -4.166187 -0.011450 -1.752604 -0.000000 -25.357869 0.000000 68.289176 -0.000000 5.800025 -3.311157 -0.493157 -16.003118 -0.565455 0.011420 3.363513 -0.000000 22.620654 0.000000 71.103312 -0.000000 -6.143078 2.832048 -6.593983 -0.183655 -1.822960 14.452863 -0.000000 10.067096 0.000000 0.827619 -5.534122 0.079819 0.257283 -0.243734 -13.790554 -0.391574 -2.930953 -15.282020 -0.000000 10.351658 0.000000 -0.577757 -6.767445 -0.068084 -0.703669 1.800385 15.878963
0.033777 78.064766 2.081017 0.053950 -2.086890 -0.791694 0.000000 0.000000 -1.391881 0.579486 0.000000 0.000000 0.000000 9.443651 0.000000 16.002622 -3.050606 -0.011436 -1.237734 0.000000 -25.568572 0.000000 66.715357 -0.000000 6.590827 -3.117859 -0.268541 -16.003316 0.425434 0.011420 2.956255 -0.000000 22.100750 -0.000001 69.296821 0.000001 -6.901579 3.225193 -6.975469 -0.233166 -1.743444 14.208848 -0.000000 9.921504 -0.000000 0.880334 -6.686696 0.102514 0.210643 0.441666 -13.387764 0.029119 -3.411230 -14.441563 -0.000000 10.765549 0.000000 -1.007540 -7.769933 -0.136230 -0.480257 2.301511 15.228094
-0.087454 78.006485 4.119832 -0.171405 -1.424193 -1.055841 0.000000 -0.000000 -1.278429 1.000873 -0.000000 0.000000 -0.000000 9.437145 -0.000000 16.003014 -1.087365 -0.011422 -0.623173 -0.000000 -26.208024 -0.000002 63.612888 0.000002 6.923941 -2.047353 0.329403 -16.003616 1.936356 0.011426 2.023681 0.000000 21.040347 -0.000000 65.906043 0.000000 -8.239158 3.696117 -7.830352 -0.086315 -1.765136 13.316971 -0.000000 10.645030 -0.000000 1.055461 -9.347198 0.171443 -0.080838 1.756829 -12.269613 0.948828 -4.808114 -12.850824 -0.000000 12.456364 -0.000000 -1.597976 -10.207375 -0.283251 -0.599464 3.654838 13.953231
-0.210109 77.858559 5.367148 -0.363795 -0.719407 -1.362685 0.000000 0.000000 -1.361620 1.338435 0.000000 -0.000000 -0.000000 9.431638 0.000000 16.003204 -0.136637 -0.011419 -0.075250 0.000001 -26.591080 0.000002 61.540310 -0.000002 6.882918 -1.430141 0.995977 -16.003810 2.894096 0.011435 1.197409 -0.000000 21.196337 -0.000003 63.803827 0.000003 -9.549093 3.588765 -7.814300 0.428743 -2.170176 12.867187 -0.000000 12.712339 0.000001 1.152017 -11.422621 0.228180 -0.563952 1.556087 -11.509279 1.516003 -5.740162 -11.887156 0.000000 14.447105 -0.000000 -1.885384 -12.040721 -0.393439 -0.635393 3.687492 13.324470
-0.375223 77.661407 6.563406 -0.597799 -0.128259 -1.657674 -0.000000 0.000000 -1.341979 1.695926 -0.000000 -0.000000 -0.000000 9.699792 -0.000000 16.003318 0.446136 -0.011420 0.604056 -0.000000 -26.841730 -0.000002 59.747639 0.000002 7.202242 -0.877316 1.675583 -16.003913 3.411282 0.011440 0.173506 -0.000000 22.028241 -0.000001 61.980154 0.000001 -10.599506 3.924425 -7.769275 1.232738 -3.713050 12.160026 0.000000 17.230676 0.000000 1.058576 -14.605711 0.266965 -0.836753 1.283928 -10.481683 2.098181 -6.622777 -10.801261 -0.000000 17.007804 0.000000 -2.462346 -14.297233 -0.608433 -0.363178 3.667064 12.565944
-0.581988 77.385101 7.705718 -1.026031 0.384107 -1.952175 -0.000000 0.000000 -1.208502 2.107492 -0.000000 -0.000000 -0.000000 10.392511 -0.000000 16.003419 0.940911 -0.011421 1.352918 0.000001 -26.824025 0.000001 58.282954 -0.000000 7.803450 -0.253621 2.051212 -16.003910 3.405356 0.011440 -0.746307 -0.000000 22.980891 0.000003 60.197612 -0.000002 -11.776270 4.155110 -7.569654 2.587694 -6.608583 11.415492 -0.000000 24.599581 -0.000000 1.125088 -18.440485 0.355929 -1.349615 0.285742 -9.377048 2.774632 -7.312125 -9.982459 0.000000 19.603628 0.000000 -3.255869 -16.452637 -0.923050 0.202908 3.429283 12.065183
-0.794341 76.919830 8.816667 -1.851297 0.787741 -2.084265 -0.000000 0.000000 -0.785989 2.654397 0.000000 -0.000000 0.000000 11.647661 0.000000 16.003452 1.114505 -0.011422 2.265162 -0.000000 -26.048090 -0.000000 57.116927 0.000000 9.204547 -0.380696 1.774868 -16.003912 3.405957 0.011440 -1.855163 -0.000001 23.696502 0.000000 57.663232 -0.000000 -12.635036 5.094416 -7.966224 3.261605 -10.755421 9.895149 0.000000 35.091437 -0.000000 1.758948 -22.523240 0.673959 -1.271059 -2.435139 -7.601260 3.851854 -8.454145 -9.627403 -0.000000 22.712476 0.000000 -4.841217 -18.809550 -1.564258 1.341049 3.453263 11.883375
-0.955521 76.322083 10.033627 -2.590416 0.572613 -2.336618 0.000000 0.000000 -0.282758 3.396819 -0.000000 0.000000 -0.000000 12.868161 0.000000 16.003456 1.134803 -0.011422 3.203064 0.000000 -25.664441 -0.000001 55.275496 0.000001 10.506807 -0.478374 1.906550 -16.003785 2.784284 0.011434 -3.162470 -0.000001 24.003935 -0.000001 55.858747 0.000001 -13.393277 5.479562 -8.144728 4.835686 -14.775634 9.695918 0.000000 45.456457 -0.000001 2.741899 -24.879945 1.154292 -2.294587 -6.075126 -6.993717 4.922489 -8.799054 -8.868434 -0.000000 25.091491 0.000000 -5.687465 -20.795147 -2.025022 1.744685 3.671858 11.399195
-1.089103 75.973038 11.572160 -3.064421 0.053646 -2.388940 -0.000000 -0.000000 0.513957 4.046633 -0.000000 -0.000000 -0.000000 14.223361 0.000000 16.003554 1.622473 -0.011424 4.039155 -0.000000 -25.122004 -0.000002 52.793736 0.000002 12.416475 0.458099 1.984099 -16.003629 1.997773 0.011427 -4.425988 -0.000000 23.887881 -0.000001 54.017567 0.000001 -13.799431 5.868629 -8.136635 6.275269 -19.702654 10.367006 0.000000 57.129568 -0.000000 3.513788 -22.506440 1.346474 -2.909060 -14.561648 -7.280612 5.667239 -8.365558 -8.570728 -0.000000 26.314295 0.000000 -5.489631 -22.281537 -2.086907 1.241108 4.013103 11.150308
-1.196234 75.764435 13.534927 -2.967663 -0.629036 -2.204210 -0.000000 -0.000000 1.585554 4.323259 -0.000000 0.000000 -0.000000 15.601037 0.000000 16.003663 2.161383 -0.011428 4.586265 0.000001 -24.591521 0.000000 50.439591 0.000001 15.501656 0.841217 2.094930 -16.003420 0.943173 0.011421 -5.794352 -0.000001 24.366024 -0.000001 52.429906 0.000001 -14.323112 5.944806 -7.995839 6.666631 -25.139275 10.729000 -0.000001 67.100249 0.000001 3.667589 -20.065153 1.259827 -2.385845 -20.880360 -7.145351 6.061196 -6.436174 -8.240552 0.000000 26.389655 -0.000000 -5.692608 -23.392343 -2.266393 1.100501 3.757497 10.595861
-1.377274 75.551468 16.256132 -2.497679 -1.058000 -1.980239 -0.000000 -0.000000 2.954491 4.311522 0.000000 0.000000 0.000000 16.826613 -0.000000 16.003742 2.555543 -0.011431 4.326678 -0.000000 -24.023576 -0.000000 49.528910 0.000000 18.750159 1.320535 1.446826 -16.003100 -0.655379 0.011420 -7.045328 -0.000000 25.816300 0.000001 51.827298 -0.000001 -13.158585 6.268943 -7.732837 7.586535 -30.424977 12.206898 -0.000001 72.229030 0.000001 3.840401 -19.001352 1.252075 -2.219900 -21.263267 -8.039055 6.484487 -3.825123 -7.625767 0.000000 25.744799 -0.000000 -6.069166 -24.084989 -2.484520 0.886358 2.844584 9.705782
-1.417192 75.249512 18.625441 -1.858491 -1.241150 -1.727733 0.000000 0.000000 3.853147 3.744621 0.000000 0.000000 -0.000000 17.538467 0.000000 16.003743 2.570314 -0.011431 4.930347 -0.000001 -23.779489 0.000000 48.048549 -0.000000 20.903634 1.777424 1.689560 -16.002564 -3.340597 0.011439 -8.168488 -0.000000 26.815985 -0.000000 50.163625 -0.000000 -13.555297 6.399102 -7.703664 8.169675 -34.611214 14.010381 -0.000000 71.286292 -0.000000 3.827619 -18.990239 1.247193 -1.600608 -15.894619 -9.218096 6.017184 -1.776022 -7.551698 0.000000 25.650748 -0.000000 -5.868974 -25.494888 -2.533406 0.728530 2.450528 9.352494
-1.343515 74.856796 21.097391 -1.484890 -1.266747 -1.517900 -0.000000 -0.000000 5.067327 3.361466 0.000000 -0.000000 0.000000 18.175802 -0.000000 16.003742 2.567791 -0.011432 6.016857 -0.000000 -23.417526 -0.000000 46.690591 0.000000 22.359040 2.185562 2.110812 -16.001985 -6.235639 0.011488 -9.358328 0.000000 27.798269 -0.000001 48.762778 0.000001 -13.494403 6.682163 -8.028436 8.902470 -38.917017 16.022749 -0.000000 66.817278 0.000000 3.774689 -18.285317 1.185853 -0.565959 -7.773179 -10.458494 5.600981 -0.163532 -7.685672 0.000000 25.831532 -0.000000 -5.614142 -27.114329 -2.565249 0.683765 2.291421 9.268003
-1.158742 74.386078 23.627628 -1.396159 -0.976142 -1.333059 -0.000000 -0.000000 5.736913 3.143178 -0.000000 -0.000000 -0.000000 18.629157 -0.000000 16.003778 2.734483 -0.011432 7.282485 0.000000 -22.716933 0.000001 45.516731 -0.000001 22.873967 1.698658 2.982091 -16.001498 -8.630336 0.011550 -10.406163 0.000000 28.568314 0.000001 47.256191 -0.000002 -13.813188 6.822846 -8.728150 9.754035 -42.644663 17.964386 0.000001 59.874155 -0.000001 3.230340 -16.415561 0.913791 1.033382 0.711862 -11.817193 5.245032 1.441754 -7.695326 -0.000000 26.365327 0.000000 -5.399164 -28.707439 -2.599339 0.954131 1.499717 9.051902
-0.855271 73.817650 26.174026 -1.124914 -0.257054 -1.429302 -0.000000 0.000000 6.273591 2.827468 0.000000 0.000000 -0.000000 19.114215 0.000000 16.003785 2.772856 -0.011434 8.533076 -0.000000 -21.581810 -0.000001 45.425887 0.000001 23.191119 1.380656 3.082024 -16.000903 -11.516583 0.011654 -11.736255 -0.000000 30.448077 -0.000000 45.139218 -0.000001 -14.356428 8.056617 -10.810206 10.179595 -46.297974 19.128749 0.000000 49.928685 0.000000 2.310557 -14.354019 0.573107 2.811717 11.453936 -12.691539 4.463976 1.869503 -7.717159 -0.000000 29.771086 -0.000000 -5.188663 -30.879419 -2.668366 1.348474 -0.805970 9.089231
-0.461726 73.192085 28.933155 -1.168793 0.344676 -2.023369 -0.000000 -0.000000 6.826575 2.649895 -0.000000 0.000000 0.000000 19.552957 0.000000 16.003851 3.109638 -0.011437 9.372302 -0.000001 -21.014971 0.000001 44.844985 -0.000001 23.580766 1.262344 3.414870 -16.000384 -13.998304 0.011769 -12.737787 -0.000000 31.239420 -0.000001 43.810783 0.000001 -14.109504 8.897891 -12.381285 9.083700 -47.814332 18.520447 -0.000000 40.630684 0.000001 1.631586 -13.157075 0.371479 4.625518 20.157987 -12.532207 3.872722 2.773360 -7.168736 -0.000000 31.526096 -0.000001 -4.455533 -32.225750 -2.379375 1.478061 -2.608463 9.104073
-0.057230 72.491089 32.028347 -1.022743 0.807235 -2.654481 0.000000 -0.000000 7.726219 2.421905 0.000000 0.000000 -0.000000 19.852528 0.000000 16.004029 4.002131 -0.011448 10.173012 -0.000001 -20.499891 -0.000002 44.330296 0.000001 23.511213 1.901155 3.738302 -15.999999 -15.797834 0.011868 -13.155126 -0.000000 31.383404 -0.000000 42.958576 -0.000001 -13.603531 8.968422 -13.822959 7.490655 -48.286485 17.290530 0.000000 34.533955 0.000000 1.180831 -12.363705 0.252870 5.885583 25.194348 -11.905914 3.197017 4.431951 -6.920993 -0.000000 32.869901 -0.000000 -3.719539 -33.390717 -2.049038 1.602039 -4.832300 9.465229
0.331864 71.715912 35.407673 -0.617354 1.193066 -2.906280 -0.000000 0.000000 9.027691 1.509991 -0.000000 0.000000 -0.000000 19.653342 0.000000 16.004081 4.258565 -0.011452 10.674398 -0.000001 -20.506065 -0.000000 43.718668 0.000000 24.294655 1.976571 3.759275 -15.999723 -17.071920 0.011946 -13.086613 0.000001 31.454251 -0.000001 42.218348 -0.000001 -14.134040 9.137064 -15.147116 5.296126 -49.876058 15.447157 -0.000001 33.793600 0.000000 2.114537 -9.937330 0.365068 5.611798 24.452909 -10.386886 1.997543 6.199240 -6.353286 0.000000 34.895353 -0.000000 -2.834206 -34.558584 -1.608588 1.829262 -7.763581 9.179117
0.690761 70.810410 39.024567 0.290568 1.874621 -2.945546 -0.000000 -0.000000 10.380712 0.342144 0.000000 0.000000 0.000000 19.170928 -0.000000 16.004121 4.448357 -0.011455 11.143040 0.000001 -21.078247 -0.000001 42.095676 0.000000 24.131113 2.215315 3.603463 -15.999523 -17.987318 0.012006 -12.787995 -0.000000 31.436879 -0.000001 40.635607 0.000001 -14.263414 9.454034 -15.788927 2.488411 -52.735936 12.496580 0.000000 36.496821 -0.000000 4.148666 -5.804377 0.420291 3.315595 19.715063 -7.409284 0.581866 7.610582 -6.014920 0.000000 37.045220 -0.000000 -1.534741 -34.737235 -0.874658 1.485401 -11.824891 8.941311
1.188882 70.015701 42.236320 1.304505 2.303216 -2.603434 0.000000 -0.000000 10.652275 -1.038270 0.000000 -0.000000 0.000000 18.945865 0.000000 16.004115 4.426629 -0.011454 11.230258 -0.000000 -21.619834 0.000002 41.394305 -0.000002 24.218484 2.444434 4.173482 -15.999311 -18.949964 0.012074 -12.395622 0.000000 31.192182 -0.000002 39.285972 0.000001 -14.225328 9.173221 -15.492591 -0.003454 -55.268818 10.873423 -0.000000 43.354523 0.000001 6.992271 -3.148922 0.386008 0.660759 12.258348 -5.618712 -1.080107 7.958096 -5.738141 -0.000000 41.712455 -0.000000 -0.907639 -35.877401 -0.531953 1.679772 -16.108354 8.465221
1.676021 70.123329 45.802086 1.904421 1.966889 -1.964926 -0.000000 -0.000000 10.237411 -1.879092 0.000000 0.000000 0.000000 19.287929 0.000000 16.003941 3.559746 -0.011442 11.038816 -0.000001 -22.163430 -0.000000 41.806239 0.000001 24.031889 2.296504 4.921719 -15.999313 -18.932062 0.012073 -11.915491 -0.000000 31.504151 0.000001 38.536845 -0.000000 -14.602971 8.863192 -15.865541 -1.860942 -55.108115 9.735667 -0.000001 48.203556 0.000001 9.391337 -2.699032 0.446229 -1.526124 7.140880 -4.968606 -2.446932 5.816831 -5.881983 -0.000000 50.405985 0.000000 -0.667116 -30.017497 -0.333746 2.174187 -28.121770 8.459241
2.361484 71.191879 49.906467 2.078361 1.117832 -1.093106 0.000000 0.000000 9.671906 -2.151002 0.000000 0.000000 0.000000 20.282611 0.000000 16.003810 2.904060 -0.011435 10.818618 0.000001 -22.754254 0.000001 42.634939 -0.000001 23.571830 2.182951 5.652176 -15.999334 -18.841858 0.012066 -11.449472 -0.000000 31.748802 0.000000 38.185666 -0.000000 -14.550541 8.729919 -16.215424 -4.029948 -51.831485 8.470915 -0.000001 50.055043 0.000000 10.838609 -4.161602 0.796023 -2.278563 4.312277 -5.050290 -4.007004 1.403313 -5.601151 -0.000000 65.678971 0.000000 0.418932 -12.277601 0.089087 3.478822 -55.697732 9.825827
3.202910 71.853065 53.363918 2.216671 1.277290 -0.415792 0.000000 -0.000000 9.123833 -2.388361 -0.000000 -0.000001 0.000000 20.954568 -0.000001 16.003605 1.885289 -0.011427 11.017428 0.000001 -23.468858 0.000000 43.629391 -0.000000 22.979132 0.642934 5.822052 -15.999333 -18.840934 0.012066 -11.167993 0.000000 32.027537 -0.000001 36.781532 0.000001 -15.056508 10.013055 -18.525181 -5.269137 -48.453974 7.501078 0.000001 51.202825 -0.000000 11.680792 -7.003864 1.444072 -3.042759 2.557244 -5.237070 -6.663106 -5.704372 -6.881133 -0.000003 77.314244 0.000003 1.050064 -4.149804 0.075996 9.364707 -67.925180 16.805820
3.892601 72.207413 56.288265 2.401541 0.634843 0.657284 -0.000000 0.000000 8.388017 -2.399412 0.000000 -0.000000 -0.000000 21.699946 0.000000 16.003369 0.706303 -0.011421 11.569163 -0.000001 -23.927312 0.000000 44.298151 -0.000000 22.436217 -0.196897 6.380998 -15.999371 -18.672543 0.012055 -11.096111 -0.000000 31.781454 0.000000 37.196489 -0.000000 -16.211480 10.455456 -18.602817 -6.588366 -46.004563 6.280290 -0.000000 53.013496 0.000000 12.315762 -9.310943 2.023021 -3.514595 1.395191 -5.395698 -8.507578 -11.691625 -8.579673 -0.000002 85.187541 0.000002 0.045327 -8.113159 0.006397 10.333308 -64.858151 17.108739
4.481700 72.560661 59.334541 2.332884 -0.209565 1.524838 0.000000 0.000000 7.504594 -2.073576 -0.000000 -0.000000 -0.000000 22.439802 -0.000000 16.003257 0.134853 -0.011420 11.979619 -0.000000 -24.212813 -0.000001 44.981290 0.000001 21.819164 0.230169 6.855235 -15.999529 -17.970687 0.012005 -11.090653 0.000001 31.164855 -0.000001 37.851268 0.000000 -16.794481 10.358373 -17.877791 -7.470598 -43.109357 5.430785 0.000000 54.571634 -0.000000 12.312698 -12.121251 2.624147 -3.174432 0.712445 -5.593637 -9.711767 -17.520733 -10.419706 0.000268 89.965882 -0.000268 -1.385007 -13.121698 -0.314483 9.074325 -57.812842 15.011360
4.985460 72.903618 62.682152 2.190847 -0.935307 2.136456 -0.000000 -0.000000 6.849442 -1.738167 0.000000 0.000000 0.000000 22.901937 0.000000 16.003109 -0.610707 -0.011421 12.426277 -0.000000 -24.878788 0.000001 45.697806 -0.000000 22.353663 0.572639 6.803182 -15.999842 -16.532151 0.011913 -11.004413 -0.000000 30.353071 -0.000001 38.897837 0.000001 -17.553408 10.038380 -18.228083 -8.258889 -40.027991 4.674264 0.000001 55.447956 -0.000001 12.866378 -14.988268 3.380675 -3.262062 0.477315 -5.636762 -9.943967 -23.159332 -11.953613 179.999996 88.466906 -179.999996 -2.721790 -16.504932 -0.773789 6.913307 -49.738199 12.230203
5.416404 73.247734 66.509865 2.015898 -1.325105 2.755059 -0.000000 0.000000 5.590716 -1.528293 -0.000000 -0.000000 0.000000 22.787334 -0.000000 16.002838 -1.966200 -0.011427 13.097454 0.000001 -26.325253 -0.000001 47.655881 -0.000000 21.547461 0.645214 5.918822 -16.000334 -14.228965 0.011781 -11.026109 0.000000 29.107530 0.000001 41.196619 -0.000000 -16.426269 9.516766 -18.991830 -8.699784 -36.304537 4.391444 -0.000001 55.867928 0.000001 12.211677 -18.240975 3.875458 -2.168682 0.005334 -6.059730 -9.796156 -29.041727 -13.233835 -0.000120 89.921407 0.000120 -3.861887 -18.033932 -1.197204 5.014677 -40.482555 9.740830
5.714614 73.479080 69.770142 1.880019 -1.593649 3.489244 0.000000 0.000000 4.259055 -1.430313 -0.000000 0.000000 0.000000 22.894335 -0.000000 16.002504 -3.641036 -0.011443 13.161773 -0.000000 -26.844623 -0.000000 47.451204 0.000001 20.379301 1.275598 6.008617 -16.000669 -12.640057 0.011704 -11.075408 0.000000 27.999358 0.000000 42.768690 0.000001 -16.358869 8.060944 -18.191355 -8.867937 -33.097477 4.625719 0.000000 56.107607 -0.000000 11.696308 -20.528159 4.152173 -1.235144 -0.916073 -6.919617 -8.971441 -34.118389 -14.053079 0.000001 85.364634 -0.000001 -5.426876 -18.905277 -1.763053 3.832846 -29.933886 7.484605
5.895266 73.740433 73.034027 1.701410 -1.806733 4.181835 0.000000 0.000000 2.770956 -1.310485 0.000000 -0.000000 0.000000 22.888959 0.000000 16.002202 -5.148498 -0.011466 13.186726 -0.000000 -27.038445 -0.000001 46.476754 0.000001 19.109208 1.304052 6.111314 -16.001072 -10.710365 0.011622 -11.530272 -0.000000 27.182279 -0.000000 44.247985 -0.000001 -16.415820 7.656402 -17.471999 -8.642485 -29.665390 4.548184 -0.000000 55.781371 0.000001 11.962888 -22.625392 4.659936 -1.588439 -1.641848 -7.542429 -7.949818 -38.169483 -14.674708 0.000002 78.351686 -0.000002 -5.473092 -18.974194 -1.784389 1.862194 -18.841872 6.204945
6.017141 73.976753 76.251129 1.527095 -1.770943 4.843578 0.000000 0.000000 1.264468 -1.104397 -0.000000 -0.000000 -0.000000 22.907338 0.000000 16.001918 -6.557578 -0.011495 13.355712 0.000000 -27.130991 -0.000000 44.835651 0.000000 17.714756 1.332599 6.630158 -16.001465 -8.792409 0.011556 -12.087745 -0.000000 26.574880 0.000001 45.351251 -0.000001 -16.635862 6.857274 -16.700851 -8.303139 -26.314369 4.591118 0.000001 55.083235 -0.000001 12.406910 -24.607865 5.233992 -2.179087 -2.279166 -8.298658 -6.671251 -40.841597 -14.592086 0.000000 68.775739 -0.000000 -4.780798 -17.728827 -1.458885 -0.137251 -8.157848 5.409220
6.082847 74.216270 79.420700 1.407828 -0.835582 5.557643 0.000000 -0.000000 -0.199517 -1.322350 0.000000 0.000000 0.000000 23.020494 0.000000 16.001466 -8.783841 -0.011555 13.864336 0.000000 -28.115884 -0.000000 43.240294 -0.000000 17.775699 0.077151 6.274400 -16.001915 -6.568389 0.011495 -12.492752 0.000001 26.368702 -0.000001 45.354739 0.000000 -17.038181 7.123032 -17.029707 -7.909082 -23.328385 3.885167 0.000000 54.091984 -0.000000 13.331427 -26.097951 5.951271 -3.762705 -3.491758 -8.499135 -5.369854 -42.541258 -14.831299 0.000000 57.268578 -0.000000 -4.088349 -14.513652 -1.026216 -2.216428 0.587593 5.357547
6.124204 74.365471 82.613113 1.159692 -0.516540 5.886870 -0.000000 -0.000000 -1.132378 -1.293754 0.000000 -0.000000 0.000000 23.125099 0.000000 16.001163 -10.270513 -0.011605 14.461443 -0.000000 -28.466115 0.000001 41.752570 -0.000001 17.944524 -0.624181 6.809093 -16.002189 -5.217989 0.011467 -12.831010 0.000001 26.085910 -0.000003 46.329066 0.000002 -18.194285 7.331660 -16.694997 -7.734106 -20.366633 3.378336 0.000001 52.744021 -0.000001 13.213980 -27.080051 6.101269 -3.886975 -4.391859 -8.379966 -3.678460 -42.798384 -14.176303 0.000000 45.179453 -0.000000 -2.729254 -12.068318 -0.571040 -4.596022 9.840588 5.726919
6.150178 74.394356 85.985130 0.916898 -0.376518 6.155555 0.000000 0.000000 -1.595986 -1.063033 -0.000000 -0.000000 0.000000 22.946821 0.000000 16.000989 -11.103442 -0.011638 14.852987 -0.000000 -28.592587 0.000001 40.811055 -0.000001 17.986374 -0.019954 7.967799 -16.002500 -3.660573 0.011443 -12.909199 -0.000001 25.225065 -0.000000 47.158005 0.000000 -18.742447 7.309948 -15.768698 -7.613455 -17.340644 3.194422 -0.000000 51.515364 0.000000 12.383913 -28.074518 5.899657 -3.163788 -5.397246 -8.429096 -1.687710 -41.677101 -13.116950 0.000000 35.299999 -0.000000 -0.939284 -10.294537 -0.167873 -7.369544 16.369815 5.991599
6.176081 74.247414 89.572701 0.662311 -0.257305 6.188878 0.000000 0.000000 -2.255638 -0.673594 -0.000000 0.000000 0.000000 22.517077 0.000000 16.000880 -11.633373 -0.011659 14.890079 -0.000001 -28.455348 -0.000001 40.601618 0.000001 18.955030 0.010968 8.693118 -16.002760 -2.360329 0.011430 -12.976566 0.000001 24.517628 -0.000000 48.085479 0.000000 -19.705499 7.431393 -15.617009 -7.277112 -14.555565 3.137813 0.000000 50.966993 -0.000000 12.222767 -29.181518 6.029279 -3.158570 -6.656254 -8.332178 -0.234494 -41.218677 -12.358037 0.000000 30.856963 0.000000 -1.415959 -8.909095 -0.219329 -7.630278 18.652558 6.043325
6.179252 73.891846 93.533699 -0.025306 -0.227114 6.246427 -0.000000 -0.000000 -2.971691 0.141580 0.000000 -0.000000 0.000000 21.701807 -0.000000 16.000904 -11.519639 -0.011654 14.583776 0.000000 -28.072265 -0.000001 41.185338 0.000000 18.620668 -0.217027 8.914832 -16.003019 -1.064770 0.011421 -12.813910 0.000001 23.963172 -0.000000 49.140273 0.000001 -19.968246 7.952800 -16.290591 -6.010910 -11.789157 3.717523 -0.000000 51.428638 0.000000 10.436398 -30.868776 5.398623 -2.047490 -8.473954 -8.863624 1.517059 -41.553112 -10.721916 -0.000000 29.443866 0.000000 -3.036904 -6.049059 -0.320326 -5.970888 17.477604 4.534047
5.950419 73.369637 96.910278 -1.079760 -0.350968 6.353480 0.000000 -0.000000 -3.236240 1.070636 -0.000000 -0.000000 -0.000000 21.472549 -0.000000 16.001069 -10.718990 -0.011623 14.314469 0.000000 -27.643461 0.000002 41.200388 -0.000002 17.923932 -0.143054 9.638007 -16.003008 -1.122070 0.011423 -12.658401 0.000001 23.694655 -0.000000 49.530373 0.000000 -20.045803 7.686425 -15.983923 -3.258524 -10.874808 3.877128 0.000000 55.847777 -0.000000 8.439178 -32.203223 4.520842 -1.901743 -12.522815 -9.023686 3.223011 -42.338577 -9.534778 -0.000000 34.215487 0.000000 -5.327403 -3.276846 -0.305395 -3.366805 10.861741 2.367391
5.733552 73.086388 100.176216 -1.845381 -0.924758 6.188634 -0.000000 0.000000 -3.389111 1.767206 -0.000000 0.000000 0.000000 21.709111 -0.000000 16.001307 -9.565040 -0.011581 14.124215 0.000000 -27.507844 0.000002 41.651405 -0.000001 17.267145 -0.464259 10.534926 -16.002913 -1.597043 0.011424 -12.840871 0.000001 23.764421 -0.000002 49.183977 0.000002 -19.738845 7.652716 -16.031271 -0.733359 -12.106040 4.446904 0.000001 64.024299 -0.000001 5.953816 -29.043762 2.898418 -1.263878 -22.213940 -9.035442 4.243985 -42.282812 -9.249275 -0.000001 40.236258 0.000001 -7.087644 -3.426365 -0.425764 -1.551939 5.507231 1.416738
5.521222 73.349640 103.678368 -2.086667 -1.895362 5.771465 0.000000 -0.000000 -3.077091 1.671408 -0.000000 0.000000 0.000000 22.475163 -0.000000 16.001606 -8.100779 -0.011535 13.856919 -0.000000 -27.552042 -0.000001 42.216592 0.000001 17.011876 -0.501505 11.329850 -16.002736 -2.482545 0.011431 -13.143830 -0.000001 23.921288 0.000001 48.000702 -0.000001 -18.993491 7.529624 -15.879670 1.696325 -15.486699 5.121118 0.000001 77.643334 -0.000001 3.141707 -16.694281 0.903333 -0.127256 -43.840964 -8.721151 4.905913 -40.851302 -9.267561 0.000000 44.432121 -0.000000 -8.644016 -5.810193 -0.881693 -0.282699 3.239485 1.488594
5.229730 73.386940 106.998154 -2.017174 -2.396996 5.442334 0.000000 -0.000000 -2.950013 1.191287 -0.000000 -0.000000 0.000000 23.387435 -0.000000 16.001808 -7.103357 -0.011508 13.740127 0.000001 -27.445197 -0.000001 43.351877 0.000001 18.245729 -0.962092 10.904351 -16.002412 -4.099142 0.011449 -13.327120 -0.000001 24.387013 0.000001 45.526658 -0.000000 -18.101114 8.958801 -17.327749 3.675598 -21.475724 5.901290 -0.000020 89.149886 0.000020 1.751163 -6.232859 0.190181 0.084870 -59.207910 -9.418001 4.972748 -38.550542 -9.557827 0.000000 47.454176 -0.000000 -10.452948 -9.142960 -1.679152 1.380681 1.818706 1.969752
4.976609 73.350754 110.113754 -2.299760 -3.055659 4.649857 0.000000 0.000000 -2.515219 0.622637 -0.000000 -0.000000 -0.000000 24.487448 0.000000 16.001935 -6.476998 -0.011493 14.027387 0.000002 -27.541104 -0.000001 43.839920 0.000001 19.806040 -1.197257 11.049070 -16.001946 -6.419699 0.011492 -13.267871 0.000000 24.606508 -0.000001 43.884424 0.000002 -17.789979 9.253521 -17.537377 4.734532 -27.209889 6.364568 -179.999998 85.237087 179.999998 2.632531 -7.314562 0.335397 -0.750092 -57.301548 -8.823713 5.442622 -36.615396 -9.750806 -0.000001 50.278891 0.000001 -11.296164 -12.432372 -2.462409 1.974442 1.059398 2.856667
4.768534 73.324539 113.343765 -2.300776 -3.731712 3.774837 -0.000000 0.000000 -1.504554 0.036090 0.000000 0.000000 -0.000000 25.288188 0.000000 16.002205 -5.129212 -0.011466 14.127061 -0.000001 -27.461202 -0.000001 44.749997 0.000001 20.824169 -0.376334 11.080735 -16.001261 -9.788590 0.011588 -12.859121 -0.000000 24.582063 -0.000002 42.836621 0.000002 -17.184222 8.799046 -17.336133 4.992582 -32.432958 6.511091 179.999997 84.073467 -179.999997 3.817466 -10.066773 0.668236 -1.604953 -49.764475 -7.701966 5.922877 -34.598452 -9.563249 0.000000 52.754064 -0.000000 -11.840016 -16.025629 -3.312282 2.138223 0.925860 3.614737
4.618199 73.317047 116.782082 -2.070595 -4.502720 2.975304 0.000000 -0.000000 -0.321935 -0.723934 -0.000000 0.000000 0.000000 25.945895 -0.000000 16.002515 -3.584426 -0.011442 13.853879 -0.000001 -27.393334 0.000001 45.925094 -0.000001 22.490838 -0.249571 10.930193 -16.000496 -13.463266 0.011743 -12.207815 -0.000000 24.931466 0.000001 41.860662 -0.000001 -16.804644 9.048362 -17.863899 4.549292 -37.202748 6.461561 179.999993 86.837161 -179.999994 4.953588 -12.457005 1.071069 -2.187618 -39.031135 -6.478779 6.109582 -32.094365 -9.522462 0.000000 54.575656 -0.000000 -12.564032 -19.408333 -4.235506 2.436318 0.857865 4.453661
4.393020 73.269981 120.746483 -1.839173 -4.860771 2.104974 0.000000 -0.000000 1.563638 -1.500465 0.000000 0.000000 -0.000000 26.047780 0.000000 16.002815 -2.078134 -0.011427 13.078181 0.000000 -27.458643 0.000002 48.348998 -0.000002 24.506996 -0.334280 10.251757 -15.999434 -18.392262 0.012034 -11.582604 -0.000001 26.041230 0.000001 41.803857 -0.000001 -14.786339 10.036424 -18.089361 3.557403 -41.506684 6.041098 0.000004 86.615750 -0.000004 5.626620 -13.742808 1.340751 -2.292079 -26.526004 -5.152572 5.945774 -29.021334 -10.126945 -0.000000 55.881750 0.000000 -13.354496 -22.974322 -5.293881 2.795396 0.479446 6.001526
4.415035 73.236382 124.338127 -1.654223 -5.054631 1.267174 -0.000000 -0.000000 3.340874 -2.322937 -0.000000 -0.000000 -0.000000 25.886819 -0.000000 16.003242 0.046263 -0.011420 12.410018 0.000001 -27.157635 0.000001 49.214393 -0.000000 25.318134 0.328410 10.246701 -15.998502 -22.500465 0.012360 -10.634364 0.000000 26.869123 0.000001 40.547560 -0.000001 -14.911479 9.507593 -17.708677 3.149628 -44.173158 6.500971 0.000000 77.730376 -0.000000 5.424404 -13.943968 1.310825 -1.598197 -14.589176 -4.865378 5.996512 -25.759711 -9.869030 0.000000 56.495488 -0.000000 -13.256460 -26.342303 -5.967913 2.664021 0.248006 6.830564
4.524737 73.175987 127.943420 -1.641668 -5.139071 0.506463 -0.000000 -0.000000 4.926979 -2.712046 -0.000000 -0.000000 0.000000 25.333977 -0.000000 16.003659 2.142062 -0.011428 12.121611 -0.000001 -26.712940 -0.000001 50.262135 0.000001 25.233330 0.542631 10.010578 -15.997574 -26.357022 0.012745 -10.017734 -0.000001 27.539848 0.000001 39.780509 -0.000000 -15.488359 9.103740 -17.418392 2.848689 -45.635914 7.013072 -0.000000 67.273395 0.000000 4.891718 -13.542384 1.148105 -0.470110 -3.037174 -4.973653 6.380442 -22.420759 -9.578195 0.000000 56.514202 -0.000000 -13.513721 -29.227407 -6.692972 2.735252 -0.062647 7.504852
4.708118 73.119415 131.565231 -1.930814 -5.048914 -0.200047 0.000000 -0.000000 6.084290 -2.662511 -0.000000 0.000000 -0.000000 24.913725 -0.000000 16.004135 4.527115 -0.011455 11.970369 0.000000 -25.994288 -0.000001 51.364818 0.000001 24.687493 0.503761 10.269522 -15.996843 -29.225898 0.013086 -9.483368 -0.000000 28.257911 -0.000001 38.946702 -0.000001 -16.934649 8.827573 -17.652721 2.986617 -45.920194 8.094739 0.000000 55.116298 0.000000 4.386449 -12.305501 0.936606 0.988264 7.978779 -5.905854 7.040589 -18.676905 -9.361264 -0.000000 55.498345 0.000000 -13.782379 -31.298285 -7.262087 2.946256 -0.744313 8.127807
4.965679 72.955849 135.199020 -1.964613 -4.949477 -0.859079 0.000000 0.000000 7.231326 -2.393610 -0.000000 -0.000000 0.000000 24.007885 -0.000000 16.004585 6.764774 -0.011500 11.725779 0.000000 -24.453791 0.000000 54.116000 -0.000000 23.174214 -0.732583 9.259247 -15.996325 -31.167125 0.013347 -8.989704 0.000000 29.076147 0.000000 37.353085 -0.000000 -19.333536 10.835732 -21.041497 3.323585 -46.155183 10.061569 0.000000 41.992800 -0.000000 2.736686 -11.419614 0.542241 4.143534 20.163173 -8.128582 7.265971 -14.188816 -9.775410 0.000000 54.929060 0.000000 -14.474532 -32.879742 -7.977492 3.627609 -3.106544 9.091665
5.245591 72.778610 138.909409 -2.419941 -4.753033 -1.690788 -0.000000 0.000000 7.991864 -2.039571 0.000000 0.000000 0.000000 23.414689 0.000000 16.005033 8.965386 -0.011561 11.539706 -0.000001 -23.499868 0.000000 55.335228 -0.000000 22.469021 -1.549384 8.762321 -15.995948 -32.524330 0.013544 -8.990092 0.000000 29.300063 -0.000000 35.812390 -0.000001 -20.155517 12.713427 -22.644671 3.707650 -45.066173 11.128798 0.000000 31.130790 0.000000 1.412836 -10.935523 0.268073 6.725916 29.091045 -9.789203 7.678552 -10.630926 -9.928617 -0.000000 53.457289 0.000000 -14.262429 -33.992538 -8.088628 3.831201 -4.238765 10.106869
5.529070 72.531593 142.799683 -2.659505 -4.377239 -2.807553 0.000000 0.000000 8.959112 -1.801609 0.000000 -0.000000 -0.000000 22.683166 0.000000 16.005483 11.154464 -0.011640 11.272833 0.000001 -22.620240 0.000002 56.089179 -0.000002 21.282956 -1.863103 8.387396 -15.995691 -33.436579 0.013684 -8.816056 0.000000 29.403080 0.000001 34.468328 -0.000001 -20.810979 13.636144 -23.564963 4.184294 -43.442376 12.007647 -0.000000 24.251412 0.000000 0.857899 -10.862333 0.161682 7.807133 33.865208 -10.446325 7.460783 -6.663116 -10.147643 0.000000 51.629821 -0.000000 -12.785200 -34.975960 -7.411395 3.534392 -5.794756 11.540406
5.790523 72.133942 146.830307 -2.612671 -3.963954 -3.758601 0.000000 0.000000 10.097849 -2.219014 0.000000 0.000000 0.000000 21.914184 -0.000000 16.005831 12.826285 -0.011712 11.177297 0.000001 -22.664593 0.000001 56.853269 -0.000001 21.344895 -2.520088 8.394984 -15.995526 -34.006203 0.013776 -8.480557 -0.000001 29.549241 -0.000000 33.409411 0.000000 -22.217760 14.146916 -25.215573 3.967112 -43.721389 11.667577 -0.000000 23.156895 -0.000000 2.021105 -10.465451 0.367266 6.549789 34.489141 -9.251153 6.816877 -3.213429 -9.776964 0.000000 50.707281 -0.000000 -12.209460 -35.557487 -7.171805 4.219042 -7.997910 12.211294
6.035264 71.521095 151.115112 -1.881919 -3.025727 -4.501879 0.000000 -0.000000 10.934108 -3.385607 0.000000 -0.000000 0.000000 20.703891 -0.000000 16.006040 13.823458 -0.011761 11.295031 -0.000001 -23.667983 0.000001 58.128903 -0.000001 20.201593 -3.167606 9.027779 -15.995366 -34.551810 0.013866 -7.448786 -0.000000 29.884457 0.000001 33.064944 -0.000001 -23.274914 14.333419 -25.580763 3.204224 -45.235933 10.135627 -0.000001 24.176120 0.000000 3.354486 -8.461979 0.494175 3.795040 32.236977 -6.234504 5.648771 -0.394879 -9.245018 -0.000000 50.602197 0.000000 -11.208855 -36.087945 -6.657721 4.429836 -11.076511 12.554312
6.524761 70.942093 154.898575 -0.740879 -1.953420 -4.905728 -0.000000 0.000000 11.607738 -4.992490 0.000000 -0.000000 -0.000000 19.695149 0.000000 16.006240 14.765638 -0.011810 11.062208 0.000001 -24.427099 -0.000003 58.184253 0.000002 19.868520 -2.616919 9.229430 -15.995248 -34.956592 0.013935 -6.791021 -0.000000 29.615421 0.000000 32.388940 0.000000 -24.373398 13.024385 -24.100579 1.889230 -47.675145 10.061110 -0.000000 31.208455 0.000000 5.940176 -5.018211 0.521457 0.984279 23.083725 -4.410288 3.444528 1.071297 -8.948455 0.000000 52.429321 -0.000001 -9.088355 -37.014309 -5.500713 4.164101 -14.563971 12.966091
6.975778 70.725388 158.592484 0.302021 -1.626254 -4.726048 0.000000 0.000000 11.323987 -6.239165 0.000000 -0.000000 -0.000000 19.660361 0.000000 16.006226 14.699062 -0.011807 11.068774 0.000001 -25.047929 -0.000003 58.489964 0.000002 19.479152 -1.965599 9.397011 -15.995274 -34.863623 0.013919 -6.235500 -0.000001 29.466805 0.000001 32.071425 -0.000000 -25.551250 11.696664 -23.805849 0.263062 -49.425023 9.942441 -0.000000 38.343149 0.000000 7.907715 -1.784541 0.247829 -0.667233 14.023801 -3.327887 1.240688 0.258515 -8.959378 -0.000000 57.606895 0.000001 -7.336762 -34.228245 -4.142336 4.050104 -22.086222 12.895116
7.535280 71.381485 162.651596 0.960695 -2.134060 -3.987884 0.000000 -0.000000 10.812695 -6.716248 0.000000 0.000000 0.000000 20.404031 -0.000000 16.006116 14.172347 -0.011778 11.060603 0.000000 -25.545415 0.000001 58.884538 -0.000000 18.465548 -1.513038 9.318496 -15.995446 -34.288774 0.013820 -5.683551 0.000001 29.444301 0.000001 31.997874 -0.000001 -26.513414 10.610230 -23.186461 -1.359390 -48.459367 9.516140 0.000000 42.841507 -0.000000 8.958321 -0.183799 0.028974 -1.312786 7.383174 -3.040568 -1.644408 -2.970015 -8.461349 -0.000001 69.816087 0.000001 -4.105373 -20.144205 -1.415961 3.560946 -44.567859 12.268034
8.375664 71.991241 166.440903 1.454496 -3.071630 -3.182844 0.000000 0.000000 10.164223 -6.566072 -0.000000 0.000000 -0.000000 21.528314 -0.000000 16.005726 12.322254 -0.011689 10.891814 -0.000002 -25.631021 -0.000001 59.225431 0.000001 17.721972 -2.124116 8.298445 -15.995599 -33.756843 0.013735 -6.048853 -0.000000 30.432711 0.000001 30.352700 -0.000000 -27.450688 11.790348 -26.550014 -2.791239 -45.418314 8.758561 -0.000000 46.140285 0.000000 9.778271 -2.302257 0.396656 -2.052933 4.108947 -3.086210 -5.712939 -8.374077 -8.816464 0.000002 81.249497 -0.000002 -1.041443 -5.531275 -0.100395 6.258380 -63.773413 16.813434
9.128234 72.230621 169.680206 2.073204 -3.744075 -2.235402 0.000000 0.000000 9.492050 -6.352538 -0.000000 0.000000 -0.000000 22.665291 0.000000 16.005374 10.628248 -0.011619 11.250473 -0.000001 -25.861697 0.000002 58.872767 -0.000001 16.983301 -2.295775 7.971725 -15.995807 -33.029612 0.013620 -6.442446 -0.000001 30.311659 -0.000000 30.534134 0.000000 -28.616647 12.512913 -27.044895 -4.739573 -43.204682 7.395651 -0.000000 49.473121 0.000000 10.896092 -5.044267 0.969669 -2.955852 2.046630 -2.846372 -7.813064 -13.125122 -9.392960 -0.000002 89.265441 0.000002 -1.003365 -5.877008 -0.102748 7.852942 -65.774169 17.987686
9.744067 72.445694 172.930435 2.266203 -4.657462 -1.385240 0.000000 -0.000000 8.697991 -5.756832 -0.000000 -0.000000 0.000000 23.714222 0.000000 16.005034 8.968739 -0.011562 11.609736 0.000000 -26.046427 0.000001 57.776939 -0.000001 16.225289 -1.862670 7.784225 -15.996252 -31.432791 0.013385 -6.764128 -0.000001 29.827668 0.000001 30.880087 -0.000001 -28.975029 12.822272 -26.522916 -6.131557 -40.566447 6.412200 0.000000 52.403760 -0.000000 11.564950 -8.578582 1.748367 -3.167285 1.035194 -2.839601 -8.729499 -17.877538 -10.128080 179.999997 85.698978 -179.999997 -1.644276 -10.122650 -0.289068 6.512520 -60.870103 15.718921
10.266895 72.663681 176.466156 2.184736 -5.354421 -0.784981 0.000000 -0.000000 7.842766 -4.958237 -0.000000 0.000000 -0.000000 24.211995 -0.000000 16.004716 7.407359 -0.011516 12.107316 0.000001 -26.658779 0.000001 56.801582 -0.000001 16.353240 -1.630336 7.638885 -15.996901 -28.999103 0.013057 -7.031328 -0.000000 29.300109 -0.000000 31.157797 -0.000002 -29.943430 12.498601 -27.034646 -7.095611 -37.770344 5.800836 0.000000 54.473370 -0.000001 12.566260 -12.164253 2.689212 -3.524663 0.576501 -2.929076 -8.732813 -22.617738 -10.985388 179.999999 83.776965 -179.999999 -2.603504 -13.911424 -0.626345 4.581819 -53.659562 12.940914
10.844387 72.835197 180.465958 2.077590 -5.561539 0.018655 0.000000 -0.000000 6.332022 -4.268150 -0.000000 -0.000000 0.000000 23.900878 0.000000 16.004303 5.364718 -0.011470 12.866396 0.000000 -27.573898 -0.000000 55.752110 -0.000000 15.138802 -1.570036 7.222942 -15.997834 -25.291751 0.012631 -7.470279 0.000000 28.827646 0.000002 31.456118 -0.000000 -28.520576 12.414971 -27.286409 -7.383125 -34.781505 6.136409 -0.000000 56.425639 0.000000 12.768370 -16.052894 3.585714 -3.037976 -0.218718 -3.999582 -8.868060 -27.966123 -11.828347 -179.999995 85.243503 179.999995 -4.066742 -16.552390 -1.160373 4.097781 -44.007086 10.817015
11.202347 72.912910 183.842972 2.004591 -5.585317 1.083979 0.000000 -0.000000 4.902688 -3.797313 -0.000000 -0.000000 0.000000 23.911998 0.000000 16.003863 3.171059 -0.011438 13.057655 -0.000000 -27.767423 -0.000002 53.212172 0.000002 13.797073 -0.507517 7.710637 -15.998611 -22.025927 0.012319 -7.890268 -0.000000 28.591541 -0.000002 31.885213 0.000003 -28.604360 10.636537 -25.128329 -7.809491 -32.304547 6.098930 -0.000000 57.761319 0.000000 12.750337 -18.961482 4.205203 -2.447442 -1.044592 -5.010040 -8.664043 -32.820187 -13.237694 179.999984 89.262142 -179.999985 -6.123305 -18.471346 -1.946720 3.920796 -33.209105 9.069727
11.422178 73.012459 187.247070 1.926986 -5.570430 2.172868 -0.000000 -0.000000 3.355766 -3.439210 0.000000 -0.000000 0.000000 23.724847 0.000000 16.003521 1.457147 -0.011423 13.141285 -0.000000 -27.686817 0.000002 50.609292 -0.000002 12.526169 0.044870 8.295344 -15.999383 -18.616022 0.012050 -8.719190 -0.000000 28.554711 0.000001 31.875675 -0.000001 -28.969757 10.154124 -23.507750 -8.004699 -29.375234 5.867583 0.000000 58.483124 -0.000000 12.978921 -21.722619 4.875757 -2.443563 -1.845834 -5.931972 -7.806248 -36.925395 -14.158193 0.000004 84.093061 -0.000004 -6.798354 -19.299169 -2.256298 2.563232 -21.802795 7.567242
11.570543 73.101532 190.590866 1.904615 -5.429272 3.149329 0.000000 -0.000000 1.985473 -3.115402 0.000000 0.000000 0.000000 23.675489 0.000000 16.003204 -0.132180 -0.011420 13.425281 0.000000 -27.286234 0.000001 47.655451 -0.000002 11.328243 0.605753 9.296856 -16.000083 -15.418669 0.011845 -9.548220 -0.000000 28.193316 0.000001 31.256874 -0.000001 -29.480834 9.385028 -21.788848 -8.046539 -26.346515 5.734223 0.000000 58.484030 -0.000000 13.356831 -24.253984 5.570730 -2.742085 -2.378491 -6.897158 -6.372087 -39.691735 -14.206518 0.000000 74.892488 -0.000000 -6.497432 -19.037950 -2.127579 0.679885 -10.515001 6.475007
11.667954 73.246681 193.856735 2.004492 -4.297983 4.083417 -0.000000 0.000000 0.525265 -3.269887 -0.000000 0.000000 0.000000 23.996001 -0.000000 16.002745 -2.438304 -0.011430 14.011221 0.000000 -27.334159 0.000000 44.828936 0.000001 11.695968 -0.410886 8.959019 -16.000828 -11.881977 0.011670 -9.983146 0.000001 27.677093 -0.000000 29.351373 -0.000000 -29.977561 9.639993 -22.806078 -7.896826 -23.553440 4.598753 0.000001 57.987424 -0.000000 14.379162 -26.263266 6.472092 -4.530856 -3.467773 -7.056821 -5.296456 -41.464898 -14.540926 -0.000001 63.849150 0.000001 -5.350539 -17.373672 -1.601926 -1.751880 -0.788377 6.376406
11.766346 73.319855 197.122986 1.988476 -4.126667 4.614229 0.000000 0.000000 -0.595458 -3.219102 0.000000 -0.000000 -0.000000 24.206147 -0.000000 16.002374 -4.296768 -0.011452 14.791298 -0.000000 -27.145811 0.000001 42.361726 -0.000001 12.208445 -1.225229 9.225078 -16.001307 -9.567592 0.011580 -10.359008 -0.000001 27.187596 0.000001 29.169054 -0.000000 -31.252034 9.641966 -22.989213 -8.086546 -20.485253 3.924817 -0.000000 56.988571 0.000000 14.501706 -27.825778 6.884201 -4.729176 -4.019663 -7.029047 -4.058989 -42.106855 -13.950743 0.000001 52.124537 -0.000000 -3.660479 -15.764350 -0.995739 -4.273850 9.516308 6.656327
11.854692 73.308945 200.548508 2.126496 -4.002972 5.122438 0.000000 0.000000 -1.484973 -3.062656 0.000000 -0.000000 -0.000000 24.006017 -0.000000 16.002078 -5.764198 -0.011478 15.409923 0.000000 -27.160683 0.000001 40.365939 0.000000 13.142593 -0.525501 9.972487 -16.001877 -6.758579 0.011500 -10.414590 0.000001 26.204599 0.000001 29.231893 0.000000 -31.740239 9.157552 -22.417348 -8.525907 -17.505373 3.365967 0.000000 55.703153 0.000000 14.049940 -29.228935 6.966954 -4.231118 -4.379545 -7.032043 -2.538385 -41.744859 -13.116575 0.000001 41.245126 -0.000001 -1.209667 -14.603126 -0.305027 -7.920842 18.430061 7.156578
11.909871 73.189743 204.151733 2.237264 -3.748360 5.503565 -0.000000 -0.000000 -2.561461 -2.804014 -0.000000 -0.000000 -0.000000 23.465012 -0.000000 16.001759 -7.345049 -0.011515 15.541136 0.000001 -27.226934 0.000002 39.011051 -0.000002 14.663710 -0.324069 10.295657 -16.002420 -4.056678 0.011449 -10.547955 0.000000 25.022387 0.000000 29.557755 -0.000001 -32.722953 8.812708 -22.601152 -8.728363 -14.555636 2.902273 0.000000 54.515009 -0.000000 14.348406 -30.441727 7.384511 -4.552388 -5.053009 -6.979476 -1.545840 -41.079516 -12.734217 -0.000000 33.983055 -0.000000 -0.749670 -13.983460 -0.181161 -9.446685 23.920538 7.857197
11.861554 72.951836 208.241730 1.991618 -3.411258 5.897203 0.000000 -0.000000 -3.747372 -2.350311 -0.000000 0.000000 0.000000 22.097962 -0.000000 16.001390 -9.153236 -0.011567 15.097613 -0.000000 -27.385270 0.000002 38.472167 -0.000001 15.131417 0.128126 9.956371 -16.003101 -0.655038 0.011421 -10.514163 -0.000001 23.476729 0.000000 30.672083 -0.000001 -32.505844 9.017358 -23.589563 -8.599069 -10.999879 2.739219 -0.000000 52.802083 0.000000 13.243360 -32.339332 7.175471 -3.490683 -5.428978 -7.291763 -1.556944 -40.780691 -12.368742 -0.000000 29.493593 0.000000 -1.670756 -13.037254 -0.376998 -8.128716 26.903111 7.567291
11.730751 72.580109 211.881088 1.157972 -3.177613 6.128144 -0.000000 0.000000 -4.451706 -1.356564 -0.000000 -0.000000 0.000000 21.302601 -0.000000 16.001276 -9.718860 -0.011586 14.363933 0.000000 -26.992860 -0.000002 36.936805 0.000002 15.336041 0.711776 10.483160 -16.003447 1.085402 0.011422 -10.628633 -0.000001 22.382049 -0.000001 30.712183 0.000000 -32.976890 8.296990 -23.098380 -6.767465 -8.583591 2.913671 -0.000001 53.872272 0.000001 11.409689 -33.777509 6.401865 -2.864268 -7.940047 -7.684734 -0.644987 -41.308948 -11.870497 -0.000000 31.976354 -0.000000 -3.201721 -11.443622 -0.635869 -6.080447 23.161417 6.086981
11.473391 72.100334 215.270538 -0.013115 -3.222068 5.938129 -0.000000 -0.000000 -4.566866 -0.125131 0.000000 -0.000000 -0.000000 20.841904 -0.000000 16.001254 -9.813556 -0.011590 13.861225 -0.000001 -26.736084 0.000001 35.837500 -0.000000 15.294111 0.150640 10.778145 -16.003706 2.378075 0.011430 -11.056593 0.000000 22.262527 0.000001 30.305244 0.000000 -33.487251 8.485000 -22.868556 -4.389833 -7.328802 3.191880 0.000001 56.881148 -0.000001 10.244994 -35.055992 5.926782 -2.964811 -11.075286 -7.792745 1.335314 -42.121728 -11.259184 -0.000000 37.629706 0.000000 -5.010135 -8.678464 -0.757864 -4.347504 15.515401 4.493003
11.157344 71.882881 218.465424 -0.783181 -3.687278 5.586874 -0.000000 0.000000 -4.338917 0.476280 0.000000 0.000000 -0.000000 21.005774 -0.000000 16.001382 -9.194118 -0.011568 13.318787 -0.000001 -26.681201 -0.000001 35.664616 0.000001 15.544588 -0.291014 11.114661 -16.003854 3.127137 0.011437 -11.333993 -0.000000 22.390311 -0.000000 29.778168 -0.000000 -33.744619 8.659389 -22.119773 -1.973705 -8.051685 3.798414 -0.000001 64.180877 0.000001 8.642009 -32.258613 4.637746 -3.179467 -20.155179 -7.759064 1.950445 -42.116808 -11.332330 0.000000 43.494540 -0.000000 -7.548742 -6.860275 -0.906864 -1.488228 8.355677 3.600343
10.824024 72.321793 221.883484 -1.059927 -4.749335 5.234895 0.000000 -0.000000 -4.033837 0.245247 0.000000 0.000000 -0.000000 22.056758 0.000000 16.001582 -8.210057 -0.011538 12.403738 0.000000 -26.520675 0.000001 37.074822 0.000000 16.855816 -0.923943 11.092268 -16.003878 3.252450 0.011438 -11.718774 0.000001 23.204224 0.000001 28.775664 -0.000000 -33.255396 10.904198 -23.386947 0.744424 -12.916320 5.084213 0.000002 79.478717 -0.000002 4.567391 -17.678030 1.389642 -1.172900 -44.283408 -7.909292 1.645392 -39.914306 -11.352468 0.000000 46.925531 -0.000000 -9.756154 -7.221042 -1.238123 1.567862 4.315313 3.408892
10.425261 72.500443 225.318237 -1.508760 -5.567869 4.520223 -0.000000 0.000000 -3.474164 -0.015807 0.000000 -0.000000 0.000000 23.277851 -0.000000 16.001724 -7.509674 -0.011519 12.410928 0.000000 -26.716679 0.000000 38.085184 0.000000 18.440350 -1.410207 11.373968 -16.003624 1.976562 0.011427 -12.068174 0.000000 23.902027 -0.000002 28.556723 0.000001 -32.832684 11.846492 -23.328238 2.969971 -19.021017 5.590209 -179.999979 88.725853 179.999980 2.499005 -5.666568 0.246904 0.207939 -61.137145 -7.510922 2.703780 -37.386026 -11.193932 -0.000001 50.026945 0.000000 -10.925494 -9.798823 -1.881594 2.435346 2.085542 3.822615
10.077153 72.563408 228.724152 -1.618958 -6.546284 3.936248 -0.000000 0.000000 -2.418945 -0.253195 0.000000 0.000000 0.000000 24.361851 0.000000 16.001946 -6.420879 -0.011492 12.417500 -0.000000 -26.498282 0.000001 39.584811 -0.000001 19.832898 -0.697161 11.477885 -16.003078 -0.768135 0.011421 -12.262181 0.000001 24.320962 0.000000 29.002694 0.000001 -31.794500 11.705230 -22.480819 3.697049 -24.955842 5.656627 -179.999995 83.426405 179.999995 2.429549 -4.918248 0.208419 0.273436 -60.237411 -6.816002 3.548157 -35.144052 -10.949825 -0.000000 53.012402 0.000000 -11.545335 -13.383166 -2.707057 2.538062 1.448661 4.178029
9.809008 72.661247 232.362488 -1.650302 -7.670389 3.369961 0.000000 -0.000000 -1.120793 -0.684094 0.000000 0.000000 -0.000000 25.213697 -0.000000 16.002295 -4.684597 -0.011458 12.132067 0.000000 -26.278278 -0.000001 41.484286 0.000001 22.293266 -0.739545 11.562072 -16.002467 -3.826589 0.011446 -12.123289 -0.000001 25.138598 -0.000000 29.614968 -0.000000 -31.409275 12.354571 -22.644218 3.920507 -29.481320 5.647409 179.999998 82.133204 -179.999998 3.560098 -8.705155 0.539499 -0.892018 -52.067956 -6.292085 4.311509 -32.338590 -10.820996 -0.000000 54.949519 0.000000 -12.254070 -16.820531 -3.596364 2.649234 1.299121 4.684855
9.476959 72.876160 236.609680 -1.764054 -8.284154 2.627271 -0.000000 0.000001 1.300623 -0.848875 0.000000 0.000000 -0.000000 25.628729 0.000000 16.002658 -2.881870 -0.011434 11.235253 -0.000000 -25.598982 -0.000001 44.406915 0.000001 25.146251 -0.460452 11.351138 -16.001694 -7.672877 0.011523 -11.850834 0.000001 26.441709 -0.000000 31.290535 -0.000000 -28.711122 13.663009 -22.796151 3.998021 -33.728705 5.548467 -179.999999 84.343736 179.999999 3.887504 -10.772224 0.727672 -1.235250 -42.910842 -5.539368 5.108101 -28.629567 -10.643654 -0.000001 55.780915 0.000001 -13.150033 -20.157160 -4.602805 3.091303 0.778429 5.411021
9.357523 73.012596 240.323227 -1.724989 -8.655906 1.802644 0.000000 0.000000 3.327295 -1.362071 -0.000001 -0.000000 0.000000 25.705536 0.000000 16.003091 -0.700089 -0.011421 10.665335 0.000001 -25.382868 -0.000001 46.020321 0.000001 26.256112 0.500093 11.324966 -16.000894 -11.570454 0.011656 -11.110188 -0.000000 27.506163 -0.000001 31.302565 0.000001 -28.148343 13.298733 -21.825375 4.168222 -37.324156 6.346817 -179.999993 89.789778 179.999993 4.588339 -12.258090 0.976170 -1.612359 -31.970633 -5.299420 5.674248 -25.094251 -10.046924 -0.000000 56.224546 0.000000 -13.166932 -23.435248 -5.315524 2.931852 0.529180 5.905994
9.343887 73.154701 244.091919 -1.697439 -8.917560 0.920323 0.000000 -0.000000 5.288773 -1.780267 -0.000000 -0.000000 0.000000 25.438845 -0.000000 16.003593 1.822660 -0.011426 10.499907 -0.000000 -25.304798 -0.000001 47.592339 0.000001 25.961920 0.988475 10.661802 -16.000086 -15.400936 0.011846 -10.674252 -0.000001 28.444403 0.000000 31.169506 0.000000 -27.606483 13.117215 -21.119963 4.277836 -40.015145 7.302178 -0.000001 82.130820 0.000000 4.787916 -13.178569 1.093996 -1.342540 -19.999720 -5.233669 6.267314 -21.276935 -9.415429 -0.000001 56.143932 0.000001 -13.445050 -26.355152 -6.058062 2.999207 0.075355 6.364742
9.443907 73.287415 247.861984 -1.738849 -8.856214 0.151595 0.000000 -0.000000 6.636325 -2.113529 -0.000000 -0.000000 -0.000000 25.154421 -0.000000 16.004128 4.496914 -0.011455 10.508176 -0.000000 -25.056699 0.000000 49.372377 0.000001 24.800197 1.521514 10.597602 -15.999409 -18.509734 0.012043 -10.247754 0.000000 29.628455 0.000000 30.313371 0.000001 -27.765278 12.295212 -20.579704 4.378708 -41.364457 8.647401 -0.000000 71.116704 0.000000 4.735894 -13.102861 1.075952 -0.491209 -7.803239 -5.797712 6.759448 -17.252352 -9.018720 -0.000000 55.075489 0.000000 -13.675722 -28.626873 -6.649403 3.150710 -0.592314 6.904436
9.631069 73.341606 251.594543 -1.461462 -8.226500 -0.421725 0.000000 -0.000000 7.384427 -2.252663 -0.000000 -0.000000 0.000000 24.531329 0.000000 16.004587 6.775561 -0.011500 10.674301 -0.000001 -23.865746 0.000001 52.706100 -0.000001 23.045241 0.535173 9.498294 -15.998774 -21.320465 0.012260 -9.893925 -0.000000 31.533263 0.000001 27.986106 -0.000000 -28.727106 14.160873 -22.938454 4.929891 -42.737825 11.045645 -0.000000 57.365296 0.000000 3.576203 -13.031527 0.807384 1.658854 6.552707 -7.832427 6.574842 -13.441871 -9.453632 0.000000 54.742827 -0.000000 -14.273727 -31.064413 -7.478747 3.657579 -2.200781 8.020177
9.864112 73.302818 255.329086 -1.885772 -7.962975 -0.993808 -0.000000 0.000000 7.981570 -1.994615 -0.000000 -0.000000 -0.000000 24.089920 -0.000000 16.005055 9.075428 -0.011564 10.715447 0.000000 -23.298398 -0.000000 54.602477 -0.000000 22.328228 -0.131780 8.894424 -15.998342 -23.172750 0.012421 -9.752562 -0.000000 32.449735 -0.000001 26.558908 0.000001 -28.730976 15.800506 -23.684398 4.717516 -42.416088 11.875562 0.000000 43.132067 -0.000001 1.811679 -11.956008 0.375428 4.811994 18.910703 -9.393592 6.939709 -10.164859 -9.849625 0.000000 53.329372 0.000000 -13.897766 -32.656712 -7.604941 3.541049 -2.771043 9.071005
10.111975 73.152840 259.205688 -2.336463 -7.677149 -1.799206 -0.000000 -0.000000 8.958085 -1.687889 0.000000 0.000000 0.000000 23.263914 -0.000000 16.005587 11.661830 -0.011661 10.656448 -0.000000 -22.652762 -0.000002 55.942029 0.000002 21.470658 -0.004072 8.234069 -15.998048 -24.411650 0.012541 -9.344662 0.000001 32.586856 0.000001 25.895043 -0.000002 -28.446421 16.565718 -23.692816 4.243229 -40.614359 12.097659 -0.000000 30.142511 0.000001 -0.205757 -11.200374 -0.039966 8.110954 28.846280 -10.685828 6.995638 -6.239092 -10.458288 -0.000000 51.333758 -0.000000 -12.894606 -33.666730 -7.232784 3.406709 -4.030301 10.551902
10.346912 72.856071 263.199585 -2.784393 -7.306747 -2.658210 -0.000000 0.000000 10.244813 -1.340395 0.000000 0.000000 0.000000 22.366401 0.000000 16.006019 13.714135 -0.011755 10.418792 0.000000 -22.281474 0.000002 56.982304 -0.000002 22.085505 -0.490708 8.123236 -15.997855 -25.213493 0.012622 -8.875420 0.000000 32.833866 -0.000001 25.521282 -0.000001 -28.758691 17.120627 -24.346388 4.163543 -39.888192 11.971948 -0.000000 21.951655 -0.000000 -0.420354 -11.219176 -0.081787 9.188800 35.871736 -11.216160 6.967408 -2.473413 -10.374753 -0.000001 49.433097 0.000001 -12.571025 -34.402140 -7.180973 4.146397 -5.387436 11.431815
10.548219 72.369858 267.449554 -2.969773 -6.545715 -3.536493 0.000000 0.000000 12.023013 -0.891762 -0.000000 0.000000 -0.000000 21.018311 0.000000 16.006342 15.243080 -0.011836 10.211120 -0.000002 -22.209055 -0.000002 57.976561 0.000001 22.014450 -1.259941 8.522669 -15.997732 -25.710141 0.012675 -7.875022 -0.000000 33.352486 -0.000001 26.372505 -0.000001 -28.197484 17.056977 -24.288136 4.738449 -40.365535 11.775122 -0.000000 17.511196 -0.000000 -0.124151 -11.315371 -0.024359 8.615206 40.266460 -10.589948 6.618951 1.223113 -10.420848 -0.000001 47.040762 0.000001 -11.456175 -34.877235 -6.610105 4.401267 -6.907552 12.554131
10.974111 71.744194 271.497528 -2.493898 -5.613344 -4.311705 -0.000000 0.000000 13.613291 -1.339372 -0.000000 0.000001 0.000000 19.625911 0.000000 16.006681 16.815767 -0.011931 9.796556 0.000001 -22.068853 -0.000000 57.213582 0.000001 22.157171 -0.639002 8.914523 -15.997660 -26.006742 0.012706 -7.567482 0.000001 33.768222 -0.000000 26.771373 0.000000 -28.617702 15.141686 -22.448923 4.316083 -41.875190 12.598347 0.000000 20.863464 -0.000000 1.542816 -10.915526 0.292218 7.358164 37.022082 -10.024121 5.128882 4.091845 -10.177925 -0.000000 46.525190 0.000000 -9.157251 -35.556097 -5.355099 4.104336 -9.471964 13.417840
11.508377 70.924118 275.374634 -1.243739 -4.444517 -4.630210 0.000000 0.000000 14.907034 -2.407654 0.000000 0.000000 -0.000000 18.530913 0.000000 16.006887 17.755462 -0.011991 9.654628 -0.000000 -21.698564 -0.000002 56.378418 0.000001 21.591451 0.045891 9.351046 -15.997669 -25.964028 0.012702 -7.583443 0.000000 33.724221 -0.000000 27.076769 -0.000000 -29.562919 13.882193 -21.760641 2.785822 -44.359330 12.332996 0.000000 27.698726 0.000000 3.983076 -7.377050 0.512232 4.415451 27.941255 -7.685900 2.703553 6.329811 -9.905161 -0.000001 48.387180 0.000000 -7.615385 -37.020659 -4.602514 4.556044 -13.200773 13.960134
12.007411 70.197479 279.148132 0.190162 -3.838152 -4.060413 0.000000 -0.000000 15.213304 -3.692762 -0.000000 -0.000000 0.000000 18.489299 0.000000 16.006837 17.528786 -0.011976 9.849856 -0.000001 -21.412676 -0.000000 55.635945 -0.000000 20.547909 0.575341 9.605436 -15.997830 -25.312661 0.012632 -7.429230 -0.000000 33.131650 -0.000001 27.373261 -0.000000 -30.719330 12.876525 -20.781873 0.638445 -46.589512 11.487965 0.000000 35.472476 0.000000 7.049147 -3.469713 0.428778 1.095702 17.831197 -5.856424 0.391054 7.339480 -9.703785 0.000000 52.285594 -0.000000 -5.853892 -36.458309 -3.486449 4.445020 -19.300838 13.624711
12.550363 70.397423 283.271088 1.105429 -5.072124 -2.662224 0.000000 -0.000000 14.399357 -4.280751 -0.000000 -0.000000 -0.000000 19.369958 -0.000000 16.006563 16.271572 -0.011896 10.839957 0.000000 -20.898470 0.000000 55.590003 0.000000 19.843188 0.099992 8.222860 -15.998223 -23.681077 0.012469 -7.299576 0.000000 32.371411 -0.000000 26.458052 -0.000001 -31.613143 14.024339 -24.051681 -1.063944 -45.939208 10.049945 0.000000 39.800938 -0.000000 8.372453 -0.844649 0.124307 -0.705467 11.502466 -5.158156 -2.287225 5.144174 -8.796903 0.000001 61.208923 -0.000001 -2.570063 -27.497998 -1.187270 3.418228 -33.666301 12.281836
13.378493 71.126427 287.310516 1.936765 -5.772107 -1.466780 0.000000 0.000000 13.487670 -4.401895 0.000000 -0.000000 0.000000 20.638096 -0.000000 16.006237 14.745563 -0.011809 11.358946 0.000001 -21.332867 -0.000001 54.663304 0.000001 19.075380 -0.069315 7.748700 -15.998501 -22.502626 0.012361 -7.394345 0.000001 31.501564 -0.000001 27.219862 -0.000001 -32.298488 14.724057 -24.753898 -3.480858 -43.644781 8.042730 -0.000000 43.510216 -0.000000 9.953938 0.397729 -0.069800 -2.456191 4.999000 -4.122685 -5.182012 0.923963 -7.851272 -0.000002 75.716299 0.000003 0.270466 -11.308865 0.053038 4.396905 -59.148760 13.812063
14.210147 71.632126 291.104370 2.560083 -6.766230 -0.135539 -0.000000 -0.000000 12.837021 -4.285280 -0.000000 0.000000 0.000000 21.865981 0.000000 16.005744 12.414498 -0.011694 11.785830 -0.000000 -21.713138 0.000000 53.082521 0.000000 18.781911 0.293231 7.424693 -15.998795 -21.231316 0.012252 -7.849318 0.000001 30.474550 -0.000000 28.095590 0.000001 -32.314377 15.159898 -23.656583 -6.101236 -41.254815 6.016079 0.000000 46.669633 -0.000000 10.804379 -0.893488 0.170505 -2.856202 1.838369 -3.462496 -7.355068 -4.968600 -8.483234 0.000002 85.960317 -0.000002 0.537393 -3.517929 0.032976 8.110267 -69.928616 17.445378
14.938786 72.062943 295.109192 2.682050 -7.718915 1.070596 0.000000 -0.000000 11.962432 -3.600755 0.000000 -0.000000 -0.000000 22.490648 0.000000 16.005289 10.214467 -0.011603 12.133300 -0.000000 -22.468151 -0.000001 51.364367 0.000001 19.598967 0.591246 7.167255 -15.999097 -19.903822 0.012147 -8.283541 0.000000 29.926544 -0.000001 29.071283 0.000002 -32.840200 15.436952 -23.819352 -8.369441 -39.161665 4.239126 0.000000 48.656318 0.000000 11.888975 -3.538256 0.744401 -3.018408 1.529645 -3.093730 -8.155349 -9.253980 -9.459884 179.999994 88.726772 -179.999994 -0.362203 -6.231390 -0.039316 7.367962 -67.185361 15.556985
15.630017 72.391891 299.489746 2.408845 -7.999493 2.328951 -0.000000 -0.000000 10.826205 -2.365321 0.000001 -0.000000 0.000000 22.154270 0.000000 16.004757 7.615457 -0.011522 12.425906 -0.000000 -23.586939 0.000000 48.783006 0.000000 19.091397 0.890024 6.952339 -15.999535 -17.942219 0.012004 -8.814813 0.000000 29.210641 0.000001 30.595450 0.000000 -31.138519 16.185745 -24.170881 -10.015823 -37.854897 2.120091 0.000000 50.358931 -0.000000 12.332424 -5.603284 1.222898 -2.915062 1.153409 -2.574157 -8.497759 -13.118339 -10.613512 179.999998 86.352781 -179.999998 -1.433524 -10.650330 -0.264990 6.363847 -60.893751 13.115923
16.095608 72.579353 302.966461 2.133050 -8.229138 3.884501 0.000000 0.000000 9.111167 -1.498536 0.000000 0.000000 -0.000000 22.237392 0.000000 16.004190 4.796733 -0.011460 12.259533 0.000000 -23.750936 -0.000001 46.036818 0.000001 18.957313 1.457639 7.910249 -16.000100 -15.324331 0.011840 -9.275188 0.000000 28.254973 -0.000000 32.460593 0.000000 -31.318198 14.723480 -22.873621 -11.196341 -36.274485 0.726780 0.000000 53.120954 -0.000000 12.579231 -8.316203 1.848576 -2.429610 0.049105 -2.739772 -8.645077 -18.025786 -12.275958 -179.999996 85.609597 179.999997 -3.597712 -15.180041 -0.943227 5.774690 -51.912839 10.205999
16.450590 72.693077 306.396942 1.945617 -8.790891 5.529058 -0.000000 0.000000 7.280046 -0.856178 -0.000000 -0.000000 0.000000 22.179587 0.000001 16.003656 2.136956 -0.011428 12.039885 0.000001 -23.320034 0.000000 43.689948 -0.000000 18.479044 1.443865 9.001652 -16.000574 -13.095964 0.011725 -9.896996 0.000000 27.342409 0.000000 34.001341 -0.000001 -31.755369 14.078778 -22.490640 -11.505132 -34.418117 -0.153640 0.000000 55.704313 -0.000000 13.228943 -11.313312 2.640425 -2.801541 -0.562710 -3.446473 -8.495466 -23.085537 -13.729799 -179.999998 87.491198 179.999998 -5.696576 -18.382873 -1.801851 5.278206 -41.214692 7.376930
16.760645 72.742584 309.776581 1.861921 -9.493323 7.031245 -0.000000 -0.000000 5.978953 -0.436330 0.000000 -0.000000 -0.000000 22.810299 -0.000000 16.003173 -0.290572 -0.011420 11.889071 0.000000 -22.687265 -0.000000 41.535981 0.000000 17.423020 1.606917 10.290535 -16.001035 -10.877217 0.011628 -10.486942 -0.000000 26.030046 0.000000 35.146004 0.000001 -32.579276 13.308456 -21.905283 -11.716523 -32.044686 -0.630691 -0.000000 57.839761 0.000001 14.060948 -14.022772 3.472901 -3.194295 -1.420000 -4.209914 -8.180537 -27.599583 -14.740267 0.000001 88.311306 -0.000001 -7.978701 -20.379521 -2.794363 5.566854 -29.821203 5.170836
17.020630 72.826782 313.124939 1.873209 -10.407746 8.411772 -0.000000 0.000000 4.409476 -0.299898 -0.000000 -0.000000 0.000000 23.432455 -0.000000 16.002721 -2.561400 -0.011432 11.753195 0.000000 -22.205225 -0.000000 39.766428 0.000001 17.111700 0.542000 10.672215 -16.001477 -8.738845 0.011553 -10.946837 -0.000000 24.930590 -0.000001 35.617433 0.000000 -32.931298 14.050734 -23.354906 -11.239944 -29.741196 -1.360573 -0.000001 59.765687 0.000001 15.429425 -16.688175 4.531591 -4.937243 -1.778261 -4.829654 -7.683017 -31.206174 -15.186516 0.000002 81.553755 -0.000002 -10.248625 -20.795045 -3.672799 6.422080 -18.148767 3.427357
17.242313 72.850121 316.438782 1.612168 -10.369922 9.096025 -0.000000 -0.000000 3.290792 -0.172031 -0.000000 -0.000000 0.000000 23.792160 -0.000001 16.002252 -4.894416 -0.011462 11.869314 0.000000 -21.770943 -0.000001 38.239551 0.000001 16.845042 -0.049246 11.225893 -16.001746 -7.405432 0.011515 -11.290675 0.000000 24.010398 0.000000 36.600222 -0.000001 -33.907332 14.067332 -23.327488 -11.007054 -27.264570 -1.716790 -0.000001 61.043828 0.000001 15.807781 -19.392080 5.370247 -5.078399 -2.711795 -5.074728 -6.888985 -33.672541 -14.746857 0.000000 72.804434 -0.000000 -11.514489 -20.695722 -4.117855 7.200143 -7.162788 2.397228
17.442884 72.883484 319.883972 1.455900 -10.288911 9.805348 -0.000000 -0.000000 1.937654 -0.150108 -0.000000 0.000000 0.000000 23.984667 -0.000000 16.001781 -7.228265 -0.011511 11.923722 0.000000 -21.449368 -0.000001 36.597778 0.000001 16.992497 0.978870 11.685802 -16.002176 -5.278857 0.011469 -11.470142 0.000001 22.640013 -0.000001 36.846708 0.000000 -34.124364 13.639031 -22.545359 -11.056042 -24.601246 -2.078189 -0.000000 61.852983 0.000000 15.623489 -22.256748 6.046136 -4.438806 -3.272918 -5.325983 -5.547913 -35.269355 -14.133230 -0.000000 61.710648 -0.000000 -10.611787 -19.523978 -3.582911 5.597431 3.942612 1.507102
17.625315 72.915146 323.490295 1.640635 -10.094258 10.455402 -0.000000 -0.000000 0.637111 -0.171349 -0.000000 0.000001 0.000000 23.842540 -0.000000 16.001277 -9.711129 -0.011586 11.760598 0.000000 -21.558267 0.000000 35.069957 -0.000000 17.990610 1.379378 11.738785 -16.002601 -3.153715 0.011437 -11.747091 -0.000000 21.022246 -0.000001 36.807937 0.000001 -35.156967 13.169724 -22.416463 -11.354024 -21.835744 -2.841862 -0.000000 61.935344 0.000000 16.406780 -24.843540 7.052145 -4.981059 -3.404887 -5.218480 -4.174360 -35.710921 -13.640524 -0.000001 49.152943 0.000000 -9.241158 -18.020169 -2.881387 3.088501 14.882712 1.397030
17.708447 73.002548 327.507507 1.909361 -9.555125 11.250472 0.000000 -0.000000 -0.772727 -0.517078 0.000000 0.000000 -0.000000 23.312928 0.000000 16.000779 -12.118233 -0.011680 11.528863 0.000000 -22.146561 -0.000000 33.464754 0.000000 18.561422 1.349555 10.906788 -16.003086 -0.732937 0.011421 -12.047544 0.000000 19.231914 0.000000 36.449973 0.000000 -34.890300 12.749349 -22.922151 -11.197443 -18.272100 -2.903256 -0.000001 61.284744 0.000001 16.362931 -27.885322 7.819171 -4.765022 -3.691617 -5.951389 -3.366023 -35.650180 -14.075816 -0.000000 36.458148 -0.000000 -7.111247 -16.800886 -2.065207 -0.639904 25.388278 2.584764
17.777126 72.977356 331.132507 2.131814 -8.897476 12.044336 0.000000 0.000000 -2.093695 -1.064376 -0.000000 -0.000000 0.000000 22.545066 -0.000000 16.000435 -13.747798 -0.011757 11.520198 0.000000 -22.345555 -0.000001 31.582781 0.000000 18.267104 2.088927 10.905502 -16.003476 1.228985 0.011423 -12.129390 0.000000 17.850877 0.000001 35.181405 -0.000002 -36.152223 11.323166 -22.677711 -10.950940 -15.271173 -2.701148 -0.000000 60.104628 0.000000 15.500502 -29.894097 7.869718 -3.929769 -4.219315 -6.944508 -2.821223 -35.460638 -14.721282 0.000000 27.959553 -0.000000 -5.438776 -17.251886 -1.617427 -4.105380 33.148828 4.187109
17.825510 72.856750 334.755402 2.142662 -8.160035 12.437459 -0.000000 -0.000000 -3.075661 -1.483472 -0.000000 -0.000000 0.000000 21.786033 -0.000001 16.000166 -15.017810 -0.011824 11.731044 0.000001 -22.341593 -0.000000 29.702080 0.000000 17.716068 1.759308 11.100789 -16.003833 3.017247 0.011435 -12.423159 0.000001 16.897179 -0.000001 33.739583 0.000001 -37.485164 11.108513 -22.690547 -10.451641 -12.536300 -2.808127 0.000001 58.769521 -0.000001 15.317185 -31.454751 8.133823 -4.016173 -4.793116 -7.351611 -3.026207 -35.523490 -15.528289 -0.000001 25.142312 0.000000 -5.389104 -18.086744 -1.677555 -4.921720 36.019572 5.304634
17.827118 72.614639 338.323120 1.719660 -7.301154 12.492317 0.000000 0.000000 -3.684620 -1.479662 0.000000 -0.000000 -0.000000 21.166134 -0.000000 16.000080 -15.423745 -0.011847 11.888726 -0.000000 -22.030425 0.000000 28.025324 -0.000000 17.267646 1.599467 11.700401 -16.004174 4.719229 0.011458 -12.629796 0.000000 15.994637 0.000000 32.115218 -0.000001 -38.234145 10.894538 -22.647640 -9.435659 -9.957808 -2.462302 -0.000000 58.051978 0.000000 14.912020 -33.023492 8.257746 -3.911400 -6.134509 -7.853337 -2.788614 -36.275754 -15.925103 -0.000001 27.356641 0.000000 -6.386477 -16.666047 -1.838588 -3.753404 32.227400 4.825272
17.742325 72.392067 341.721344 0.490101 -5.744856 12.326926 -0.000000 0.000000 -3.774760 -0.815056 0.000000 0.000000 -0.000000 20.704014 0.000000 16.000134 -15.174504 -0.011832 12.249071 0.000000 -21.056887 -0.000000 27.556096 0.000000 17.933792 0.814628 12.956774 -16.004347 5.588189 0.011475 -13.149275 0.000000 16.226348 0.000000 30.697729 0.000000 -37.821095 12.407849 -24.673530 -7.213108 -7.974769 -1.910018 0.000000 58.257030 -0.000000 13.856896 -34.302797 7.914461 -3.850797 -9.086447 -8.469631 -1.585906 -37.399725 -15.967701 -0.000000 32.825867 0.000000 -7.389506 -12.987390 -1.669489 -2.074147 22.477601 3.181001
17.520628 72.089447 344.998413 -0.751422 -5.943485 11.771061 0.000000 0.000000 -3.731947 -0.120886 0.000000 0.000000 -0.000000 20.791746 -0.000000 16.000382 -14.010685 -0.011770 12.424524 -0.000000 -20.563686 -0.000000 27.701368 0.000000 18.989157 0.049565 14.459482 -16.004352 5.608123 0.011474 -13.431070 0.000000 16.809949 -0.000001 30.470037 -0.000000 -37.719043 13.500435 -24.796595 -4.706288 -7.332030 -1.778710 0.000000 61.208023 -0.000000 13.105183 -34.320224 7.477795 -4.406754 -12.873781 -8.074727 0.254971 -38.393632 -15.551567 -0.000000 38.027785 0.000000 -8.363928 -10.889705 -1.591016 -1.247173 16.094645 2.157000
17.305161 72.154053 348.410767 -1.605887 -6.464023 10.963171 0.000000 0.000000 -3.286078 0.303873 0.000000 0.000001 -0.000000 21.319246 0.000000 16.000682 -12.580383 -0.011701 12.136651 -0.000000 -20.488595 -0.000000 28.859677 0.000000 20.006717 0.563965 15.448863 -16.004173 4.712944 0.011459 -13.593475 0.000000 17.212591 0.000001 30.610551 -0.000000 -36.816046 14.161785 -24.183886 -2.576961 -8.879304 -0.643457 0.000002 68.101449 -0.000002 10.223179 -29.544791 5.081907 -3.229116 -23.061486 -7.788612 1.485877 -38.005268 -15.173931 -0.000000 42.882101 0.000000 -9.571519 -9.155662 -1.536952 0.135293 9.559871 1.485252
17.084606 72.690186 352.175995 -1.830709 -7.523023 10.154463 0.000000 -0.000000 -2.969970 0.160980 0.000000 0.000000 -0.000000 22.337133 0.000000 16.000846 -11.791878 -0.011666 11.315564 0.000000 -20.542036 -0.000000 30.702081 -0.000000 23.259322 0.488163 16.540677 -16.003853 3.117947 0.011437 -13.887441 -0.000000 17.889984 0.000000 30.446240 0.000000 -36.780185 14.776207 -24.226131 -0.631774 -13.270718 -0.491120 -0.000002 80.856689 0.000002 6.117578 -14.791430 1.567396 -0.803374 -45.479271 -5.893159 2.419704 -36.036930 -14.820999 0.000000 45.894545 -0.000000 -11.033174 -8.631447 -1.676133 1.511303 5.113841 1.374552
16.474058 72.912308 356.111755 -2.431902 -8.654566 9.436075 -0.000000 -0.000000 -1.987212 0.129402 0.000000 0.000000 0.000000 23.600166 -0.000000 16.000848 -11.797761 -0.011666 9.627607 -0.000000 -20.631967 0.000000 33.817420 -0.000001 26.958446 0.335874 16.915048 -16.003292 0.301374 0.011420 -14.508591 0.000000 18.854607 0.000000 30.518033 0.000000 -35.228375 16.017346 -25.241371 1.917610 -19.967879 -0.239271 179.999992 88.248666 -179.999992 2.989064 -0.749705 0.039146 0.961965 -62.839977 -5.892831 4.415289 -32.984194 -14.568346 -0.000000 48.452741 0.000000 -13.226147 -10.961412 -2.558865 2.901218 2.831886 1.627266
16.028782 72.941536 359.427795 -2.690120 -9.500575 8.902435 0.000000 0.000000 -1.301852 -0.180111 -0.000000 0.000000 -0.000000 24.630433 -0.000000 16.000988 -11.117938 -0.011638 8.947297 -0.000000 -21.360070 0.000001 36.134224 -0.000000 29.163663 1.004820 16.961583 -16.002676 -2.785281 0.011434 -14.286780 0.000001 19.798123 0.000000 29.746303 -0.000001 -35.812973 16.096410 -24.961776 3.359747 -25.635326 -0.142182 -179.999996 83.102320 179.999996 3.382365 -1.712059 0.101171 -1.909198 -60.583659 -7.927241 5.745541 -30.034976 -14.465008 0.000001 50.330069 -0.000001 -13.885141 -14.680023 -3.584641 2.847618 2.509997 2.161277
15.781734 72.914963 362.642120 -2.452191 -10.086861 8.060032 0.000000 0.000001 -0.018792 -0.941518 0.000000 -0.000000 -0.000000 25.529196 -0.000000 16.001247 -9.847695 -0.011591 8.701505 0.000000 -22.102227 0.000001 38.941583 -0.000001 30.278275 1.763898 16.593097 -16.002022 -6.032618 0.011484 -13.931722 0.000000 21.160079 -0.000000 29.346843 0.000001 -36.260413 16.414952 -24.697214 3.349869 -30.195133 -0.136388 179.999997 81.877959 -179.999997 4.857513 -7.118423 0.603369 -4.109194 -51.151477 -7.855488 6.408373 -27.432804 -14.188284 -0.000001 52.568079 0.000001 -14.952710 -18.143182 -4.753894 3.258074 1.853371 2.821703
15.676898 72.885384 365.886292 -2.131081 -10.430869 6.917884 0.000000 -0.000000 1.326425 -1.812648 -0.000000 0.000000 -0.000000 26.149783 0.000000 16.001647 -7.891688 -0.011529 8.781965 -0.000000 -22.657451 -0.000001 41.829139 0.000001 29.749508 2.536365 16.414031 -16.001354 -9.334552 0.011574 -13.164200 -0.000000 22.344373 0.000000 28.799907 -0.000001 -36.884960 16.001076 -24.480234 3.110404 -34.612985 0.502946 179.999999 84.494378 -179.999999 6.674456 -10.782319 1.254124 -5.698944 -39.952092 -7.167308 6.838424 -24.893003 -13.664248 -0.000000 54.544787 -0.000000 -15.955512 -21.273727 -5.922297 3.752127 1.039163 3.563082
